{
    "type": "FeatureCollection",
    "features": [
      {
        "type": "Feature",
        "properties": {
          "name": "HS1",
          "@circle": {
            "type": "Mercator",
            "center": [
              -99.0906244,
              19.4271488
            ]
          }
        },
        "geometry": {
          "type": "Polygon",
          "coordinates": [
            [
              [
                -99.08996659940458,
                19.427148760381435
              ],
              [
                -99.08996789732956,
                19.427187709573655
              ],
              [
                -99.08997178598217,
                19.42722650504193
              ],
              [
                -99.08997825001565,
                19.427264993678417
              ],
              [
                -99.08998726391943,
                19.427303023586344
              ],
              [
                -99.08999879211976,
                19.4273404446794
              ],
              [
                -99.0900127891201,
                19.42737710927411
              ],
              [
                -99.09002919968066,
                19.427412872672626
              ],
              [
                -99.09004795903648,
                19.42744759373378
              ],
              [
                -99.09006899315295,
                19.427481135430117
              ],
              [
                -99.090092219018,
                19.427513365388688
              ],
              [
                -99.09011754496979,
                19.427544156413365
              ],
              [
                -99.09014487105831,
                19.42757338698689
              ],
              [
                -99.09017408944004,
                19.42760094175041
              ],
              [
                -99.09020508480332,
                19.42762671195876
              ],
              [
                -99.0902377348236,
                19.427650595909572
              ],
              [
                -99.09027191064622,
                19.427672499344634
              ],
              [
                -99.09030747739479,
                19.427692335821927
              ],
              [
                -99.0903442947036,
                19.427710027056715
              ],
              [
                -99.09038221727155,
                19.427725503230477
              ],
              [
                -99.09042109543563,
                19.427738703266478
              ],
              [
                -99.09046077576144,
                19.42774957507074
              ],
              [
                -99.09050110164887,
                19.427758075737724
              ],
              [
                -99.09054191395009,
                19.427764171719534
              ],
              [
                -99.09058305159755,
                19.427767838958392
              ],
              [
                -99.09062435223981,
                19.427769062981543
              ],
              [
                -99.09066565288207,
                19.427767838958392
              ],
              [
                -99.09070679052952,
                19.427764171719534
              ],
              [
                -99.09074760283075,
                19.427758075737724
              ],
              [
                -99.09078792871819,
                19.42774957507074
              ],
              [
                -99.09082760904398,
                19.427738703266478
              ],
              [
                -99.09086648720806,
                19.427725503230477
              ],
              [
                -99.09090440977602,
                19.427710027056715
              ],
              [
                -99.09094122708484,
                19.427692335821927
              ],
              [
                -99.09097679383339,
                19.427672499344634
              ],
              [
                -99.09101096965601,
                19.427650595909572
              ],
              [
                -99.0910436196763,
                19.42762671195876
              ],
              [
                -99.09107461503957,
                19.42760094175041
              ],
              [
                -99.0911038334213,
                19.42757338698689
              ],
              [
                -99.09113115950983,
                19.427544156413365
              ],
              [
                -99.09115648546161,
                19.427513365388688
              ],
              [
                -99.09117971132666,
                19.427481135430117
              ],
              [
                -99.09120074544313,
                19.42744759373378
              ],
              [
                -99.09121950479896,
                19.427412872672626
              ],
              [
                -99.09123591535952,
                19.42737710927411
              ],
              [
                -99.09124991235987,
                19.4273404446794
              ],
              [
                -99.09126144056019,
                19.427303023586344
              ],
              [
                -99.09127045446397,
                19.427264993678417
              ],
              [
                -99.09127691849744,
                19.42722650504193
              ],
              [
                -99.09128080715006,
                19.427187709573655
              ],
              [
                -99.09128210507504,
                19.427148760381435
              ],
              [
                -99.09128080715006,
                19.427109811179882
              ],
              [
                -99.09127691849744,
                19.427071015683758
              ],
              [
                -99.09127045446397,
                19.427032527001302
              ],
              [
                -99.09126144056019,
                19.426994497030062
              ],
              [
                -99.09124991235987,
                19.426957075857313
              ],
              [
                -99.09123591535952,
                19.426920411167806
              ],
              [
                -99.09121950479896,
                19.426884647660888
              ],
              [
                -99.09120074544313,
                19.426849926479417
              ],
              [
                -99.09117971132666,
                19.42681638465274
              ],
              [
                -99.09115648546161,
                19.426784154555907
              ],
              [
                -99.09113115950983,
                19.426753363387174
              ],
              [
                -99.0911038334213,
                19.426724132666113
              ],
              [
                -99.09107461503957,
                19.426696577753855
              ],
              [
                -99.0910436196763,
                19.426670807397954
              ],
              [
                -99.09101096965601,
                19.42664692330311
              ],
              [
                -99.09097679383339,
                19.42662501972976
              ],
              [
                -99.09094122708484,
                19.42660518312214
              ],
              [
                -99.09090440977602,
                19.426587491767037
              ],
              [
                -99.09086648720806,
                19.426572015484854
              ],
              [
                -99.09082760904398,
                19.426558815354063
              ],
              [
                -99.09078792871819,
                19.42654794347011
              ],
              [
                -99.09074760283075,
                19.426539442739806
              ],
              [
                -99.09070679052952,
                19.42653334671204
              ],
              [
                -99.09066565288207,
                19.42652967944531
              ],
              [
                -99.09062435223981,
                19.42652845541282
              ],
              [
                -99.09058305159755,
                19.42652967944531
              ],
              [
                -99.09054191395009,
                19.42653334671204
              ],
              [
                -99.09050110164887,
                19.426539442739806
              ],
              [
                -99.09046077576144,
                19.42654794347011
              ],
              [
                -99.09042109543563,
                19.426558815354063
              ],
              [
                -99.09038221727155,
                19.426572015484854
              ],
              [
                -99.0903442947036,
                19.426587491767037
              ],
              [
                -99.09030747739479,
                19.42660518312214
              ],
              [
                -99.09027191064622,
                19.42662501972976
              ],
              [
                -99.0902377348236,
                19.42664692330311
              ],
              [
                -99.09020508480332,
                19.426670807397954
              ],
              [
                -99.09017408944004,
                19.426696577753855
              ],
              [
                -99.09014487105831,
                19.426724132666113
              ],
              [
                -99.09011754496979,
                19.426753363387174
              ],
              [
                -99.090092219018,
                19.426784154555907
              ],
              [
                -99.09006899315295,
                19.42681638465274
              ],
              [
                -99.09004795903648,
                19.426849926479417
              ],
              [
                -99.09002919968066,
                19.426884647660888
              ],
              [
                -99.0900127891201,
                19.426920411167806
              ],
              [
                -99.08999879211976,
                19.426957075857313
              ],
              [
                -99.08998726391943,
                19.426994497030062
              ],
              [
                -99.08997825001565,
                19.427032527001302
              ],
              [
                -99.08997178598217,
                19.427071015683758
              ],
              [
                -99.08996659940458,
                19.427148760381435
              ]
            ]
          ]
        }
      },
      {
        "type": "Feature",
        "properties": {
          "name": "HS2",
          "@circle": {
            "type": "Mercator",
            "center": [
              -99.0855864,
              19.4302859
            ]
          }
        },
        "geometry": {
          "type": "Polygon",
          "coordinates": [
            [
              [
                -99.0850649610221,
                19.430285903205363
              ],
              [
                -99.08506598989355,
                19.43031677782433
              ],
              [
                -99.08506907244742,
                19.430347530589454
              ],
              [
                -99.08507419651826,
                19.430378040133707
              ],
              [
                -99.08508134188372,
                19.43040818605004
              ],
              [
                -99.0850904803443,
                19.43043784936654
              ],
              [
                -99.08510157583467,
                19.430466913015916
              ],
              [
                -99.08511458456601,
                19.430495262297583
              ],
              [
                -99.0851294551988,
                19.4305227853303
              ],
              [
                -99.08514612904543,
                19.430549373493665
              ],
              [
                -99.08516454030183,
                19.43057492185682
              ],
              [
                -99.08518461630722,
                19.430599329592575
              ],
              [
                -99.08520627783078,
                19.430622500375275
              ],
              [
                -99.08522943938435,
                19.43064434276099
              ],
              [
                -99.08525400955985,
                19.43066477054832
              ],
              [
                -99.08527989139006,
                19.4306837031187
              ],
              [
                -99.08530698273118,
                19.430701065754455
              ],
              [
                -99.08533517666609,
                19.4307167899337
              ],
              [
                -99.08536436192621,
                19.43073081360077
              ],
              [
                -99.08539442333064,
                19.430743081411105
              ],
              [
                -99.08542524224075,
                19.430753544949663
              ],
              [
                -99.08545669702839,
                19.430762162922004
              ],
              [
                -99.08548866355586,
                19.43076890131721
              ],
              [
                -99.08552101566593,
                19.430773733542143
              ],
              [
                -99.08555362567957,
                19.4307766405264
              ],
              [
                -99.08558636489992,
                19.430777610797556
              ],
              [
                -99.08561910412028,
                19.4307766405264
              ],
              [
                -99.08565171413392,
                19.430773733542143
              ],
              [
                -99.08568406624399,
                19.43076890131721
              ],
              [
                -99.08571603277144,
                19.430762162922004
              ],
              [
                -99.0857474875591,
                19.430753544949663
              ],
              [
                -99.08577830646921,
                19.430743081411105
              ],
              [
                -99.08580836787364,
                19.43073081360077
              ],
              [
                -99.08583755313376,
                19.4307167899337
              ],
              [
                -99.08586574706867,
                19.430701065754455
              ],
              [
                -99.08589283840979,
                19.4306837031187
              ],
              [
                -99.08591872023999,
                19.43066477054832
              ],
              [
                -99.0859432904155,
                19.43064434276099
              ],
              [
                -99.08596645196907,
                19.430622500375275
              ],
              [
                -99.08598811349262,
                19.430599329592575
              ],
              [
                -99.08600818949802,
                19.43057492185682
              ],
              [
                -99.08602660075442,
                19.430549373493665
              ],
              [
                -99.08604327460105,
                19.4305227853303
              ],
              [
                -99.08605814523384,
                19.430495262297583
              ],
              [
                -99.08607115396518,
                19.430466913015916
              ],
              [
                -99.08608224945554,
                19.43043784936654
              ],
              [
                -99.08609138791611,
                19.43040818605004
              ],
              [
                -99.08609853328159,
                19.430378040133707
              ],
              [
                -99.08610365735242,
                19.430347530589454
              ],
              [
                -99.0861067399063,
                19.43031677782433
              ],
              [
                -99.08610776877774,
                19.430285903205363
              ],
              [
                -99.0861067399063,
                19.43025502858052
              ],
              [
                -99.08610365735242,
                19.43022427579789
              ],
              [
                -99.08609853328159,
                19.430193766224757
              ],
              [
                -99.08609138791611,
                19.430163620268615
              ],
              [
                -99.08608224945554,
                19.430133956902043
              ],
              [
                -99.08607115396518,
                19.43010489319309
              ],
              [
                -99.08605814523384,
                19.43007654384328
              ],
              [
                -99.08604327460105,
                19.43004902073494
              ],
              [
                -99.08602660075442,
                19.43002243248967
              ],
              [
                -99.08600818949802,
                19.429996884039625
              ],
              [
                -99.08598811349262,
                19.429972476213337
              ],
              [
                -99.08596645196907,
                19.429949305337907
              ],
              [
                -99.0859432904155,
                19.429927462858736
              ],
              [
                -99.08591872023999,
                19.429907034978662
              ],
              [
                -99.08589283840979,
                19.429888102317758
              ],
              [
                -99.08586574706867,
                19.4298707395951
              ],
              [
                -99.08583755313376,
                19.42985501533395
              ],
              [
                -99.08580836787364,
                19.42984099159127
              ],
              [
                -99.08577830646921,
                19.429828723712795
              ],
              [
                -99.0857474875591,
                19.42981826011466
              ],
              [
                -99.08571603277144,
                19.42980964209223
              ],
              [
                -99.08568406624399,
                19.429802903657244
              ],
              [
                -99.08565171413392,
                19.429798071403418
              ],
              [
                -99.08561910412028,
                19.429795164401654
              ],
              [
                -99.08558636489992,
                19.429794194124632
              ],
              [
                -99.08555362567957,
                19.429795164401654
              ],
              [
                -99.08552101566593,
                19.429798071403418
              ],
              [
                -99.08548866355586,
                19.429802903657244
              ],
              [
                -99.08545669702839,
                19.42980964209223
              ],
              [
                -99.08542524224075,
                19.42981826011466
              ],
              [
                -99.08539442333064,
                19.429828723712795
              ],
              [
                -99.08536436192621,
                19.42984099159127
              ],
              [
                -99.08533517666609,
                19.42985501533395
              ],
              [
                -99.08530698273118,
                19.4298707395951
              ],
              [
                -99.08527989139006,
                19.429888102317758
              ],
              [
                -99.08525400955985,
                19.429907034978662
              ],
              [
                -99.08522943938435,
                19.429927462858736
              ],
              [
                -99.08520627783078,
                19.429949305337907
              ],
              [
                -99.08518461630722,
                19.429972476213337
              ],
              [
                -99.08516454030183,
                19.429996884039625
              ],
              [
                -99.08514612904543,
                19.43002243248967
              ],
              [
                -99.0851294551988,
                19.43004902073494
              ],
              [
                -99.08511458456601,
                19.43007654384328
              ],
              [
                -99.08510157583467,
                19.43010489319309
              ],
              [
                -99.0850904803443,
                19.430133956902043
              ],
              [
                -99.08508134188372,
                19.430163620268615
              ],
              [
                -99.08507419651826,
                19.430193766224757
              ],
              [
                -99.08506907244742,
                19.43022427579789
              ],
              [
                -99.0850649610221,
                19.430285903205363
              ]
            ]
          ]
        }
      },
      {
        "type": "Feature",
        "properties": {
          "name": "HS3",
          "@circle": {
            "type": "Mercator",
            "center": [
              -99.0741314,
              19.4335668
            ]
          }
        },
        "geometry": {
          "type": "Polygon",
          "coordinates": [
            [
              [
                -99.07334020225122,
                19.43356681029225
              ],
              [
                -99.07334176342488,
                19.433613657413616
              ],
              [
                -99.07334644078459,
                19.433660319637355
              ],
              [
                -99.07335421587098,
                19.43370661280925
              ],
              [
                -99.07336505799933,
                19.433752354231657
              ],
              [
                -99.07337892438072,
                19.433797363384645
              ],
              [
                -99.07339576029084,
                19.433841462638327
              ],
              [
                -99.07341549928609,
                19.433884477953924
              ],
              [
                -99.07343806346563,
                19.43392623957054
              ],
              [
                -99.07346336377898,
                19.433966582675183
              ],
              [
                -99.07349130037737,
                19.434005348053173
              ],
              [
                -99.07352176300779,
                19.434042382716466
              ],
              [
                -99.07355463144816,
                19.43407754050738
              ],
              [
                -99.07358977598177,
                19.434110682675446
              ],
              [
                -99.07362705790918,
                19.434141678424947
              ],
              [
                -99.07366633009568,
                19.434170405431082
              ],
              [
                -99.07370743755186,
                19.43419675032271
              ],
              [
                -99.0737502180454,
                19.434220609129753
              ],
              [
                -99.07379450274124,
                19.434241887693524
              ],
              [
                -99.0738401168679,
                19.434260502038278
              ],
              [
                -99.07388688040729,
                19.43427637870264
              ],
              [
                -99.07393460880503,
                19.43428945502948
              ],
              [
                -99.07398311369899,
                19.434299679413172
              ],
              [
                -99.07403220366247,
                19.43430701150331
              ],
              [
                -99.07408168495985,
                19.434311422363855
              ],
              [
                -99.07413136231104,
                19.434312894587404
              ],
              [
                -99.07418103966224,
                19.434311422363855
              ],
              [
                -99.0742305209596,
                19.43430701150331
              ],
              [
                -99.0742796109231,
                19.434299679413172
              ],
              [
                -99.07432811581704,
                19.43428945502948
              ],
              [
                -99.07437584421479,
                19.43427637870264
              ],
              [
                -99.07442260775417,
                19.434260502038278
              ],
              [
                -99.07446822188084,
                19.434241887693524
              ],
              [
                -99.07451250657667,
                19.434220609129753
              ],
              [
                -99.07455528707021,
                19.43419675032271
              ],
              [
                -99.0745963945264,
                19.434170405431082
              ],
              [
                -99.0746356667129,
                19.434141678424947
              ],
              [
                -99.0746729486403,
                19.434110682675446
              ],
              [
                -99.07470809317391,
                19.43407754050738
              ],
              [
                -99.07474096161428,
                19.434042382716466
              ],
              [
                -99.0747714242447,
                19.434005348053173
              ],
              [
                -99.0747993608431,
                19.433966582675183
              ],
              [
                -99.07482466115644,
                19.43392623957054
              ],
              [
                -99.074847225336,
                19.433884477953924
              ],
              [
                -99.07486696433124,
                19.433841462638327
              ],
              [
                -99.07488380024135,
                19.433797363384645
              ],
              [
                -99.07489766662275,
                19.433752354231657
              ],
              [
                -99.0749085087511,
                19.43370661280925
              ],
              [
                -99.07491628383748,
                19.433660319637355
              ],
              [
                -99.0749209611972,
                19.433613657413616
              ],
              [
                -99.07492252237085,
                19.43356681029225
              ],
              [
                -99.0749209611972,
                19.433519963157384
              ],
              [
                -99.07491628383748,
                19.4334733008933
              ],
              [
                -99.0749085087511,
                19.433427007654924
              ],
              [
                -99.07489766662275,
                19.433381266140863
              ],
              [
                -99.07488380024135,
                19.433336256872547
              ],
              [
                -99.07486696433124,
                19.433292157481667
              ],
              [
                -99.074847225336,
                19.433249142009196
              ],
              [
                -99.07482466115644,
                19.433207380218466
              ],
              [
                -99.0747993608431,
                19.4331670369252
              ],
              [
                -99.0747714242447,
                19.43312827134709
              ],
              [
                -99.07474096161428,
                19.433091236475356
              ],
              [
                -99.07470809317391,
                19.433056078470898
              ],
              [
                -99.0746729486403,
                19.4330229360876
              ],
              [
                -99.0746356667129,
                19.43299194012457
              ],
              [
                -99.0745963945264,
                19.43296321290998
              ],
              [
                -99.07455528707021,
                19.432936867818245
              ],
              [
                -99.07451250657667,
                19.432913008822595
              ],
              [
                -99.07446822188084,
                19.432891730084705
              ],
              [
                -99.07442260775417,
                19.432873115583035
              ],
              [
                -99.07437584421479,
                19.43285723878149
              ],
              [
                -99.07432811581704,
                19.43284416233934
              ],
              [
                -99.0742796109231,
                19.432833937863993
              ],
              [
                -99.0742305209596,
                19.432826605707355
              ],
              [
                -99.07418103966224,
                19.43282219480648
              ],
              [
                -99.07413136231104,
                19.43282072256941
              ],
              [
                -99.07408168495985,
                19.43282219480648
              ],
              [
                -99.07403220366247,
                19.432826605707355
              ],
              [
                -99.07398311369899,
                19.432833937863993
              ],
              [
                -99.07393460880503,
                19.43284416233934
              ],
              [
                -99.07388688040729,
                19.43285723878149
              ],
              [
                -99.0738401168679,
                19.432873115583035
              ],
              [
                -99.07379450274124,
                19.432891730084705
              ],
              [
                -99.0737502180454,
                19.432913008822595
              ],
              [
                -99.07370743755186,
                19.432936867818245
              ],
              [
                -99.07366633009568,
                19.43296321290998
              ],
              [
                -99.07362705790918,
                19.43299194012457
              ],
              [
                -99.07358977598177,
                19.4330229360876
              ],
              [
                -99.07355463144816,
                19.433056078470898
              ],
              [
                -99.07352176300779,
                19.433091236475356
              ],
              [
                -99.07349130037737,
                19.43312827134709
              ],
              [
                -99.07346336377898,
                19.4331670369252
              ],
              [
                -99.07343806346563,
                19.433207380218466
              ],
              [
                -99.07341549928609,
                19.433249142009196
              ],
              [
                -99.07339576029084,
                19.433292157481667
              ],
              [
                -99.07337892438072,
                19.433336256872547
              ],
              [
                -99.07336505799933,
                19.433381266140863
              ],
              [
                -99.07335421587098,
                19.433427007654924
              ],
              [
                -99.07334644078459,
                19.4334733008933
              ],
              [
                -99.07334020225122,
                19.43356681029225
              ]
            ]
          ]
        }
      },
      {
        "type": "Feature",
        "properties": {
          "name": "HS4",
          "@circle": {
            "type": "Mercator",
            "center": [
              -99.0719091,
              19.437982
            ]
          }
        },
        "geometry": {
          "type": "Polygon",
          "coordinates": [
            [
              [
                -99.07117176066787,
                19.437982005824267
              ],
              [
                -99.07117321570955,
                19.43802566698966
              ],
              [
                -99.07117757509216,
                19.4380691558327
              ],
              [
                -99.07118482161128,
                19.438112300723013
              ],
              [
                -99.07119492666817,
                19.438154931387757
              ],
              [
                -99.07120785038279,
                19.43819687958366
              ],
              [
                -99.07122354175114,
                19.438237979760938
              ],
              [
                -99.07124193884655,
                19.438278069716674
              ],
              [
                -99.07126296906411,
                19.438316991234938
              ],
              [
                -99.07128654940713,
                19.438354590711157
              ],
              [
                -99.07131258681481,
                19.438390719758374
              ],
              [
                -99.07134097852936,
                19.438425235792756
              ],
              [
                -99.07137161250168,
                19.43845800259636
              ],
              [
                -99.07140436783345,
                19.438488890854664
              ],
              [
                -99.07143911525436,
                19.43851777866696
              ],
              [
                -99.07147571763223,
                19.438544552027306
              ],
              [
                -99.07151403051412,
                19.438569105274595
              ],
              [
                -99.0715539026967,
                19.438591341509376
              ],
              [
                -99.07159517682261,
                19.43861117297635
              ],
              [
                -99.07163769000174,
                19.438628521410703
              ],
              [
                -99.07168127445402,
                19.438643318346887
              ],
              [
                -99.07172575817148,
                19.43865550538884
              ],
              [
                -99.07177096559725,
                19.438665034440472
              ],
              [
                -99.07181671831826,
                19.43867186789546
              ],
              [
                -99.07186283576945,
                19.438675978785618
              ],
              [
                -99.07190913594626,
                19.438677350887325
              ],
              [
                -99.07195543612308,
                19.438675978785618
              ],
              [
                -99.07200155357427,
                19.43867186789546
              ],
              [
                -99.07204730629527,
                19.438665034440472
              ],
              [
                -99.07209251372105,
                19.43865550538884
              ],
              [
                -99.07213699743852,
                19.438643318346887
              ],
              [
                -99.07218058189079,
                19.438628521410703
              ],
              [
                -99.07222309506992,
                19.43861117297635
              ],
              [
                -99.07226436919582,
                19.438591341509376
              ],
              [
                -99.0723042413784,
                19.438569105274595
              ],
              [
                -99.0723425542603,
                19.438544552027306
              ],
              [
                -99.07237915663816,
                19.43851777866696
              ],
              [
                -99.07241390405908,
                19.438488890854664
              ],
              [
                -99.07244665939085,
                19.43845800259636
              ],
              [
                -99.07247729336318,
                19.438425235792756
              ],
              [
                -99.07250568507772,
                19.438390719758374
              ],
              [
                -99.0725317224854,
                19.438354590711157
              ],
              [
                -99.07255530282842,
                19.438316991234938
              ],
              [
                -99.07257633304599,
                19.438278069716674
              ],
              [
                -99.07259473014139,
                19.438237979760938
              ],
              [
                -99.07261042150974,
                19.43819687958366
              ],
              [
                -99.07262334522436,
                19.438154931387757
              ],
              [
                -99.07263345028123,
                19.438112300723013
              ],
              [
                -99.07264069680036,
                19.4380691558327
              ],
              [
                -99.07264505618298,
                19.43802566698966
              ],
              [
                -99.07264651122468,
                19.437982005824267
              ],
              [
                -99.07264505618298,
                19.437938344647133
              ],
              [
                -99.07264069680036,
                19.437894855769056
              ],
              [
                -99.07263345028123,
                19.437851710820972
              ],
              [
                -99.07262334522436,
                19.437809080076597
              ],
              [
                -99.07261042150974,
                19.437767131780493
              ],
              [
                -99.07259473014139,
                19.437726031484033
              ],
              [
                -99.07257633304599,
                19.437685941391994
              ],
              [
                -99.07255530282842,
                19.437647019722437
              ],
              [
                -99.0725317224854,
                19.437609420082342
              ],
              [
                -99.07250568507772,
                19.437573290861263
              ],
              [
                -99.07247729336318,
                19.43753877464577
              ],
              [
                -99.07244665939085,
                19.437506007656662
              ],
              [
                -99.07241390405908,
                19.43747511921134
              ],
              [
                -99.07237915663816,
                19.437446231213542
              ],
              [
                -99.0723425542603,
                19.43741945767207
              ],
              [
                -99.0723042413784,
                19.43739490425092
              ],
              [
                -99.07226436919582,
                19.437372667852276
              ],
              [
                -99.07222309506992,
                19.43735283623402
              ],
              [
                -99.07218058189079,
                19.43733548766335
              ],
              [
                -99.07213699743852,
                19.437320690607987
              ],
              [
                -99.07209251372105,
                19.437308503465832
              ],
              [
                -99.07204730629527,
                19.43729897433457
              ],
              [
                -99.07200155357427,
                19.437292140821796
              ],
              [
                -99.07195543612308,
                19.437288029896603
              ],
              [
                -99.07190913594626,
                19.43728665778315
              ],
              [
                -99.07186283576945,
                19.437288029896603
              ],
              [
                -99.07181671831826,
                19.437292140821796
              ],
              [
                -99.07177096559725,
                19.43729897433457
              ],
              [
                -99.07172575817148,
                19.437308503465832
              ],
              [
                -99.07168127445402,
                19.437320690607987
              ],
              [
                -99.07163769000174,
                19.43733548766335
              ],
              [
                -99.07159517682261,
                19.43735283623402
              ],
              [
                -99.0715539026967,
                19.437372667852276
              ],
              [
                -99.07151403051412,
                19.43739490425092
              ],
              [
                -99.07147571763223,
                19.43741945767207
              ],
              [
                -99.07143911525436,
                19.437446231213542
              ],
              [
                -99.07140436783345,
                19.43747511921134
              ],
              [
                -99.07137161250168,
                19.437506007656662
              ],
              [
                -99.07134097852936,
                19.43753877464577
              ],
              [
                -99.07131258681481,
                19.437573290861263
              ],
              [
                -99.07128654940713,
                19.437609420082342
              ],
              [
                -99.07126296906411,
                19.437647019722437
              ],
              [
                -99.07124193884655,
                19.437685941391994
              ],
              [
                -99.07122354175114,
                19.437726031484033
              ],
              [
                -99.07120785038279,
                19.437767131780493
              ],
              [
                -99.07119492666817,
                19.437809080076597
              ],
              [
                -99.07118482161128,
                19.437851710820972
              ],
              [
                -99.07117757509216,
                19.437894855769056
              ],
              [
                -99.07117176066787,
                19.437982005824267
              ]
            ]
          ]
        }
      },
      {
        "type": "Feature",
        "properties": {
          "name": "HS5",
          "@circle": {
            "type": "Mercator",
            "center": [
              -99.0697887,
              19.4357431
            ]
          }
        },
        "geometry": {
          "type": "Polygon",
          "coordinates": [
            [
              [
                -99.0689300590211,
                19.435743084966763
              ],
              [
                -99.06893175344992,
                19.43579393007792
              ],
              [
                -99.06893683004927,
                19.435844574510835
              ],
              [
                -99.06894526878409,
                19.435894818395315
              ],
              [
                -99.06895703635058,
                19.435944463442215
              ],
              [
                -99.06897208630753,
                19.435993313725813
              ],
              [
                -99.06899035925964,
                19.43604117645719
              ],
              [
                -99.0690117830919,
                19.436087862744944
              ],
              [
                -99.06903627325426,
                19.43613318834072
              ],
              [
                -99.06906373309519,
                19.436176974366344
              ],
              [
                -99.06909405424327,
                19.436219048019645
              ],
              [
                -99.0691271170348,
                19.43625924325656
              ],
              [
                -99.069162790986,
                19.436297401446293
              ],
              [
                -99.06920093530812,
                19.436333371997385
              ],
              [
                -99.06924139946295,
                19.436367012952005
              ],
              [
                -99.06928402375691,
                19.436398191546175
              ],
              [
                -99.06932863997147,
                19.436426784733666
              ],
              [
                -99.06937507202673,
                19.43645267967164
              ],
              [
                -99.06942313667662,
                19.436475774165896
              ],
              [
                -99.06947264423192,
                19.436495977074244
              ],
              [
                -99.06952339930892,
                19.43651320866613
              ],
              [
                -99.06957520160054,
                19.436527400937283
              ],
              [
                -99.06962784666676,
                19.436538497878075
              ],
              [
                -99.06968112674161,
                19.43654645569464
              ],
              [
                -99.06973483155295,
                19.43655124298153
              ],
              [
                -99.06978874915241,
                19.436552840845817
              ],
              [
                -99.06984266675185,
                19.43655124298153
              ],
              [
                -99.06989637156319,
                19.43654645569464
              ],
              [
                -99.06994965163804,
                19.436538497878075
              ],
              [
                -99.07000229670426,
                19.436527400937283
              ],
              [
                -99.07005409899588,
                19.43651320866613
              ],
              [
                -99.07010485407288,
                19.436495977074244
              ],
              [
                -99.07015436162818,
                19.436475774165896
              ],
              [
                -99.07020242627807,
                19.43645267967164
              ],
              [
                -99.07024885833333,
                19.436426784733666
              ],
              [
                -99.0702934745479,
                19.436398191546175
              ],
              [
                -99.07033609884185,
                19.436367012952005
              ],
              [
                -99.07037656299669,
                19.436333371997385
              ],
              [
                -99.0704147073188,
                19.436297401446293
              ],
              [
                -99.07045038127,
                19.43625924325656
              ],
              [
                -99.07048344406155,
                19.436219048019645
              ],
              [
                -99.07051376520961,
                19.436176974366344
              ],
              [
                -99.07054122505055,
                19.43613318834072
              ],
              [
                -99.07056571521291,
                19.436087862744944
              ],
              [
                -99.07058713904516,
                19.43604117645719
              ],
              [
                -99.07060541199728,
                19.435993313725813
              ],
              [
                -99.07062046195422,
                19.435944463442215
              ],
              [
                -99.07063222952071,
                19.435894818395315
              ],
              [
                -99.07064066825554,
                19.435844574510835
              ],
              [
                -99.07064574485489,
                19.43579393007792
              ],
              [
                -99.0706474392837,
                19.435743084966763
              ],
              [
                -99.07064574485489,
                19.43569223983969
              ],
              [
                -99.07064066825554,
                19.435641595359268
              ],
              [
                -99.07063222952071,
                19.43559135139642
              ],
              [
                -99.07062046195422,
                19.43554170624156
              ],
              [
                -99.07060541199728,
                19.435492855822087
              ],
              [
                -99.07058713904516,
                19.435444992929096
              ],
              [
                -99.07056571521291,
                19.435398306456516
              ],
              [
                -99.07054122505055,
                19.435352980655583
              ],
              [
                -99.07051376520961,
                19.43530919440778
              ],
              [
                -99.07048344406155,
                19.435267120518724
              ],
              [
                -99.07045038127,
                19.435226925036215
              ],
              [
                -99.0704147073188,
                19.435188766594926
              ],
              [
                -99.07037656299669,
                19.435152795790266
              ],
              [
                -99.07033609884185,
                19.43511915458408
              ],
              [
                -99.0702934745479,
                19.435087975744317
              ],
              [
                -99.07024885833333,
                19.43505938232107
              ],
              [
                -99.07020242627807,
                19.435033487160908
              ],
              [
                -99.07015436162818,
                19.435010392461518
              ],
              [
                -99.07010485407288,
                19.434990189368328
              ],
              [
                -99.07005409899588,
                19.43497295761483
              ],
              [
                -99.07000229670426,
                19.434958765207806
              ],
              [
                -99.06994965163804,
                19.43494766815904
              ],
              [
                -99.06989637156319,
                19.434939710264132
              ],
              [
                -99.06984266675185,
                19.434934922929738
              ],
              [
                -99.06978874915241,
                19.434933325049524
              ],
              [
                -99.06973483155295,
                19.434934922929738
              ],
              [
                -99.06968112674161,
                19.434939710264132
              ],
              [
                -99.06962784666676,
                19.43494766815904
              ],
              [
                -99.06957520160054,
                19.434958765207806
              ],
              [
                -99.06952339930892,
                19.43497295761483
              ],
              [
                -99.06947264423192,
                19.434990189368328
              ],
              [
                -99.06942313667662,
                19.435010392461518
              ],
              [
                -99.06937507202673,
                19.435033487160908
              ],
              [
                -99.06932863997147,
                19.43505938232107
              ],
              [
                -99.06928402375691,
                19.435087975744317
              ],
              [
                -99.06924139946295,
                19.43511915458408
              ],
              [
                -99.06920093530812,
                19.435152795790266
              ],
              [
                -99.069162790986,
                19.435188766594926
              ],
              [
                -99.0691271170348,
                19.435226925036215
              ],
              [
                -99.06909405424327,
                19.435267120518724
              ],
              [
                -99.06906373309519,
                19.43530919440778
              ],
              [
                -99.06903627325426,
                19.435352980655583
              ],
              [
                -99.0690117830919,
                19.435398306456516
              ],
              [
                -99.06899035925964,
                19.435444992929096
              ],
              [
                -99.06897208630753,
                19.435492855822087
              ],
              [
                -99.06895703635058,
                19.43554170624156
              ],
              [
                -99.06894526878409,
                19.43559135139642
              ],
              [
                -99.06893683004927,
                19.435641595359268
              ],
              [
                -99.0689300590211,
                19.435743084966763
              ]
            ]
          ]
        }
      },
      {
        "type": "Feature",
        "properties": {
          "name": "HS6",
          "@circle": {
            "type": "Mercator",
            "center": [
              -99.0582003,
              19.4423711
            ]
          }
        },
        "geometry": {
          "type": "Polygon",
          "coordinates": [
            [
              [
                -99.05749287005037,
                19.442371128341474
              ],
              [
                -99.05749426600117,
                19.442413015246508
              ],
              [
                -99.0574984483445,
                19.44245473683233
              ],
              [
                -99.05750540057448,
                19.44249612844307
              ],
              [
                -99.05751509525385,
                19.442537026725304
              ],
              [
                -99.05752749412217,
                19.44257727027257
              ],
              [
                -99.05754254824676,
                19.44261670026256
              ],
              [
                -99.05756019821584,
                19.44265516108376
              ],
              [
                -99.05758037437307,
                19.442692500949608
              ],
              [
                -99.05760299709237,
                19.44272857249756
              ],
              [
                -99.05762797709222,
                19.442763233370563
              ],
              [
                -99.05765521578795,
                19.44279634677894
              ],
              [
                -99.05768460568088,
                19.442827782040187
              ],
              [
                -99.0577160307825,
                19.4428574150947
              ],
              [
                -99.05774936707238,
                19.442885128995368
              ],
              [
                -99.0577844829873,
                19.442910814369085
              ],
              [
                -99.05782123994086,
                19.44293436984842
              ],
              [
                -99.05785949287012,
                19.442955702471586
              ],
              [
                -99.0578990908083,
                19.442974728049364
              ],
              [
                -99.05793987748035,
                19.442991371497303
              ],
              [
                -99.05798169191996,
                19.443005567132083
              ],
              [
                -99.05802436910463,
                19.44301725893067
              ],
              [
                -99.05806774060702,
                19.443026400751382
              ],
              [
                -99.05811163525959,
                19.4430329565161
              ],
              [
                -99.05815587983024,
                19.44303690035252
              ],
              [
                -99.05820029970583,
                19.443038216696305
              ],
              [
                -99.05824471958142,
                19.44303690035252
              ],
              [
                -99.05828896415207,
                19.4430329565161
              ],
              [
                -99.05833285880465,
                19.443026400751382
              ],
              [
                -99.05837623030703,
                19.44301725893067
              ],
              [
                -99.0584189074917,
                19.443005567132083
              ],
              [
                -99.05846072193131,
                19.442991371497303
              ],
              [
                -99.05850150860338,
                19.442974728049364
              ],
              [
                -99.05854110654154,
                19.442955702471586
              ],
              [
                -99.0585793594708,
                19.44293436984842
              ],
              [
                -99.05861611642436,
                19.442910814369085
              ],
              [
                -99.05865123233929,
                19.442885128995368
              ],
              [
                -99.05868456862915,
                19.4428574150947
              ],
              [
                -99.0587159937308,
                19.442827782040187
              ],
              [
                -99.05874538362372,
                19.44279634677894
              ],
              [
                -99.05877262231944,
                19.442763233370563
              ],
              [
                -99.05879760231929,
                19.44272857249756
              ],
              [
                -99.0588202250386,
                19.442692500949608
              ],
              [
                -99.05884040119582,
                19.44265516108376
              ],
              [
                -99.05885805116493,
                19.44261670026256
              ],
              [
                -99.05887310528949,
                19.44257727027257
              ],
              [
                -99.05888550415781,
                19.442537026725304
              ],
              [
                -99.0588951988372,
                19.44249612844307
              ],
              [
                -99.05890215106719,
                19.44245473683233
              ],
              [
                -99.05890633341048,
                19.442413015246508
              ],
              [
                -99.05890772936131,
                19.442371128341474
              ],
              [
                -99.05890633341048,
                19.442329241425625
              ],
              [
                -99.05890215106719,
                19.44228751980755
              ],
              [
                -99.0588951988372,
                19.442246128143605
              ],
              [
                -99.05888550415781,
                19.442205229788094
              ],
              [
                -99.05887310528949,
                19.44216498614857
              ],
              [
                -99.05885805116493,
                19.442125556048847
              ],
              [
                -99.05884040119582,
                19.44208709510218
              ],
              [
                -99.0588202250386,
                19.442049755097035
              ],
              [
                -99.05879760231929,
                19.442013683398248
              ],
              [
                -99.05877262231944,
                19.44197902236519
              ],
              [
                -99.05874538362372,
                19.44194590879006
              ],
              [
                -99.0587159937308,
                19.441914473358032
              ],
              [
                -99.05868456862915,
                19.441884840131376
              ],
              [
                -99.05865123233929,
                19.441857126059926
              ],
              [
                -99.05861611642436,
                19.441831440519458
              ],
              [
                -99.0585793594708,
                19.441807884880077
              ],
              [
                -99.05854110654154,
                19.44178655210605
              ],
              [
                -99.05850150860338,
                19.441767526389015
              ],
              [
                -99.05846072193131,
                19.44175088281557
              ],
              [
                -99.0584189074917,
                19.44173668707106
              ],
              [
                -99.05837623030703,
                19.441724995180238
              ],
              [
                -99.05833285880465,
                19.44171585328622
              ],
              [
                -99.05828896415207,
                19.44170929746831
              ],
              [
                -99.05824471958142,
                19.44170535359964
              ],
              [
                -99.05820029970583,
                19.44170403724504
              ],
              [
                -99.05815587983024,
                19.44170535359964
              ],
              [
                -99.05811163525959,
                19.44170929746831
              ],
              [
                -99.05806774060702,
                19.44171585328622
              ],
              [
                -99.05802436910463,
                19.441724995180238
              ],
              [
                -99.05798169191996,
                19.44173668707106
              ],
              [
                -99.05793987748035,
                19.44175088281557
              ],
              [
                -99.0578990908083,
                19.441767526389015
              ],
              [
                -99.05785949287012,
                19.44178655210605
              ],
              [
                -99.05782123994086,
                19.441807884880077
              ],
              [
                -99.0577844829873,
                19.441831440519458
              ],
              [
                -99.05774936707238,
                19.441857126059926
              ],
              [
                -99.0577160307825,
                19.441884840131376
              ],
              [
                -99.05768460568088,
                19.441914473358032
              ],
              [
                -99.05765521578795,
                19.44194590879006
              ],
              [
                -99.05762797709222,
                19.44197902236519
              ],
              [
                -99.05760299709237,
                19.442013683398248
              ],
              [
                -99.05758037437307,
                19.442049755097035
              ],
              [
                -99.05756019821584,
                19.44208709510218
              ],
              [
                -99.05754254824676,
                19.442125556048847
              ],
              [
                -99.05752749412217,
                19.44216498614857
              ],
              [
                -99.05751509525385,
                19.442205229788094
              ],
              [
                -99.05750540057448,
                19.442246128143605
              ],
              [
                -99.0574984483445,
                19.44228751980755
              ],
              [
                -99.05749287005037,
                19.442371128341474
              ]
            ]
          ]
        }
      }
    ]
  }