{
    "type": "FeatureCollection",
    "features": [
      {
        "type": "Feature",
        "properties": {
          "name": "PLATAFORMA CENTRAL"
        },
        "geometry": {
          "type": "Polygon",
          "coordinates": [
            [
              [
                -99.0778536,
                19.4380553
              ],
              [
                -99.0770005,
                19.4385143
              ],
              [
                -99.0761242,
                19.4371006
              ],
              [
                -99.0864911,
                19.4311641
              ],
              [
                -99.0866025,
                19.4311453
              ],
              [
                -99.0866901,
                19.4311577
              ],
              [
                -99.0867865,
                19.4311949
              ],
              [
                -99.0875234,
                19.4315733
              ],
              [
                -99.0875715,
                19.4316228
              ],
              [
                -99.0878496,
                19.432009
              ],
              [
                -99.0878693,
                19.4320709
              ],
              [
                -99.0879306,
                19.4323951
              ],
              [
                -99.0879071,
                19.4325684
              ],
              [
                -99.0876567,
                19.4329515
              ],
              [
                -99.0868845,
                19.4332302
              ],
              [
                -99.0865749,
                19.4327441
              ],
              [
                -99.0871256,
                19.4324406
              ],
              [
                -99.0870421,
                19.4323011
              ],
              [
                -99.0863513,
                19.4326894
              ],
              [
                -99.0861259,
                19.4323122
              ],
              [
                -99.0859502,
                19.4324054
              ],
              [
                -99.0861896,
                19.432796
              ],
              [
                -99.0826218,
                19.4348033
              ],
              [
                -99.0825684,
                19.4347204
              ],
              [
                -99.0822316,
                19.4349065
              ],
              [
                -99.0822106,
                19.4348724
              ],
              [
                -99.0821767,
                19.434888
              ],
              [
                -99.0819692,
                19.4345474
              ],
              [
                -99.0818748,
                19.4345978
              ],
              [
                -99.0819786,
                19.4347581
              ],
              [
                -99.0819346,
                19.4347848
              ],
              [
                -99.0821092,
                19.4350681
              ],
              [
                -99.0800286,
                19.4362259
              ],
              [
                -99.0799891,
                19.4361692
              ],
              [
                -99.0793846,
                19.4365088
              ],
              [
                -99.0797449,
                19.437084
              ],
              [
                -99.0781682,
                19.4379542
              ],
              [
                -99.0776837,
                19.437183
              ],
              [
                -99.0773964,
                19.4373414
              ],
              [
                -99.0778536,
                19.4380553
              ]
            ]
          ]
        }
      },
      {
        "type": "Feature",
        "properties": {
          "name": "PLATAFORMA SUR"
        },
        "geometry": {
          "type": "Polygon",
          "coordinates": [
            [
              [
                -99.0889306,
                19.4319962
              ],
              [
                -99.0875865,
                19.4311417
              ],
              [
                -99.0877055,
                19.4309228
              ],
              [
                -99.0897189,
                19.4297982
              ],
              [
                -99.090174,
                19.4300276
              ],
              [
                -99.0896469,
                19.4309835
              ],
              [
                -99.0889306,
                19.4319962
              ]
            ]
          ]
        }
      },
      {
        "type": "Feature",
        "properties": {
          "name": "PLATAFORMA TANGO SUR 2"
        },
        "geometry": {
          "type": "Polygon",
          "coordinates": [
            [
              [
                -99.0868891,
                19.4252895
              ],
              [
                -99.0873024,
                19.4246272
              ],
              [
                -99.0863692,
                19.4240482
              ],
              [
                -99.0858507,
                19.4248712
              ],
              [
                -99.0868891,
                19.4252895
              ]
            ]
          ]
        }
      },
      {
        "type": "Feature",
        "properties": {
          "name": "PlATAFORMA TANGO SUR 1"
        },
        "geometry": {
          "type": "Polygon",
          "coordinates": [
            [
              [
                -99.0853274,
                19.4251795
              ],
              [
                -99.0833643,
                19.4243926
              ],
              [
                -99.083206,
                19.4247404
              ],
              [
                -99.0834147,
                19.4250962
              ],
              [
                -99.0850473,
                19.4257776
              ],
              [
                -99.0853274,
                19.4251795
              ]
            ]
          ]
        }
      },
      {
        "type": "Feature",
        "properties": {
          "name": "PLATAFORMA TERMINAL 2"
        },
        "geometry": {
          "type": "Polygon",
          "coordinates": [
            [
              [
                -99.0822055,
                19.4218766
              ],
              [
                -99.082417,
                19.4214821
              ],
              [
                -99.0821805,
                19.4213406
              ],
              [
                -99.0821055,
                19.4214606
              ],
              [
                -99.0819622,
                19.4213877
              ],
              [
                -99.0819904,
                19.4213306
              ],
              [
                -99.0818022,
                19.4212142
              ],
              [
                -99.0817599,
                19.4212762
              ],
              [
                -99.0816047,
                19.4211864
              ],
              [
                -99.0816416,
                19.4211237
              ],
              [
                -99.0814724,
                19.4210177
              ],
              [
                -99.0814391,
                19.421069
              ],
              [
                -99.0812833,
                19.420982
              ],
              [
                -99.0813166,
                19.4209321
              ],
              [
                -99.0811465,
                19.4208244
              ],
              [
                -99.0811148,
                19.4208729
              ],
              [
                -99.0809514,
                19.4207816
              ],
              [
                -99.0809874,
                19.4207271
              ],
              [
                -99.0808286,
                19.4206244
              ],
              [
                -99.0807953,
                19.4206729
              ],
              [
                -99.0806408,
                19.4205808
              ],
              [
                -99.0806665,
                19.4205309
              ],
              [
                -99.0804956,
                19.4204168
              ],
              [
                -99.0804623,
                19.4204667
              ],
              [
                -99.0802987,
                19.4203706
              ],
              [
                -99.0802881,
                19.4203848
              ],
              [
                -99.0801168,
                19.4202926
              ],
              [
                -99.0800321,
                19.420294
              ],
              [
                -99.0798914,
                19.4203254
              ],
              [
                -99.0791611,
                19.4215085
              ],
              [
                -99.0811081,
                19.4226008
              ],
              [
                -99.0804834,
                19.422752
              ],
              [
                -99.0788475,
                19.4218172
              ],
              [
                -99.0780111,
                19.4230028
              ],
              [
                -99.0788964,
                19.4244332
              ],
              [
                -99.0785046,
                19.4246428
              ],
              [
                -99.0777467,
                19.423387
              ],
              [
                -99.0771585,
                19.4237037
              ],
              [
                -99.0784779,
                19.4258276
              ],
              [
                -99.0820522,
                19.4238409
              ],
              [
                -99.0825244,
                19.4230544
              ],
              [
                -99.0824332,
                19.4230061
              ],
              [
                -99.0824588,
                19.4229653
              ],
              [
                -99.0825452,
                19.422908
              ],
              [
                -99.0824636,
                19.4227933
              ],
              [
                -99.0824492,
                19.4225472
              ],
              [
                -99.08239,
                19.4224913
              ],
              [
                -99.0824008,
                19.4222354
              ],
              [
                -99.0823208,
                19.4220391
              ],
              [
                -99.0823672,
                19.4219576
              ],
              [
                -99.0822055,
                19.4218766
              ]
            ]
          ]
        }
      },
      {
        "type": "Feature",
        "properties": {
          "name": "PLATAFORMA TANGO"
        },
        "geometry": {
          "type": "Polygon",
          "coordinates": [
            [
              [
                -99.0785308,
                19.4275497
              ],
              [
                -99.0779825,
                19.4265872
              ],
              [
                -99.0772184,
                19.4270009
              ],
              [
                -99.0772727,
                19.4271044
              ],
              [
                -99.0756765,
                19.4279697
              ],
              [
                -99.0762249,
                19.4288298
              ],
              [
                -99.0785308,
                19.4275497
              ]
            ]
          ]
        }
      },
      {
        "type": "Feature",
        "properties": {
          "name": "PLATAFORMA ORIENTE"
        },
        "geometry": {
          "type": "Polygon",
          "coordinates": [
            [
              [
                -99.0680987,
                19.4321725
              ],
              [
                -99.0670505,
                19.4310684
              ],
              [
                -99.0662486,
                19.43175
              ],
              [
                -99.0672948,
                19.4328312
              ],
              [
                -99.0680987,
                19.4321725
              ]
            ]
          ]
        }
      },
      {
        "type": "Feature",
        "properties": {
          "name": "PLATAFORMA ORIENTE"
        },
        "geometry": {
          "type": "Polygon",
          "coordinates": [
            [
              [
                -99.0648688,
                19.4338897
              ],
              [
                -99.0655035,
                19.4333397
              ],
              [
                -99.0658263,
                19.4336594
              ],
              [
                -99.0650497,
                19.4340823
              ],
              [
                -99.0648688,
                19.4338897
              ]
            ]
          ]
        }
      },
      {
        "type": "Feature",
        "properties": {
          "name": "PLATAFORMA ADUANA"
        },
        "geometry": {
          "type": "Polygon",
          "coordinates": [
            [
              [
                -99.0727359,
                19.4401686
              ],
              [
                -99.0731627,
                19.4408663
              ],
              [
                -99.0694858,
                19.4429813
              ],
              [
                -99.0690337,
                19.4422456
              ],
              [
                -99.0727359,
                19.4401686
              ]
            ]
          ]
        }
      },
      {
        "type": "Feature",
        "properties": {
          "name": "PLATAFROMA NORTE"
        },
        "geometry": {
          "type": "Polygon",
          "coordinates": [
            [
              [
                -99.0753094,
                19.43966
              ],
              [
                -99.0748913,
                19.4390016
              ],
              [
                -99.0728458,
                19.44016
              ],
              [
                -99.0732502,
                19.4408134
              ],
              [
                -99.0753094,
                19.43966
              ]
            ]
          ]
        }
      }
    ]
  }