{
  "type": "FeatureCollection",
  "features": [
    {
      "type": "Feature",
      "properties": {
        "name": "VIALIDAD PERIMETRAL NORTE",
        "velocidad": "40"
      },
      "geometry": {
        "type": "LineString",
        "coordinates": [
          [
            -99.0639261,
            19.4446047
          ],
          [
            -99.0638439,
            19.4447036
          ],
          [
            -99.0634288,
            19.4449794
          ],
          [
            -99.0632712,
            19.4450422
          ],
          [
            -99.0631964,
            19.4450511
          ],
          [
            -99.0630986,
            19.4450435
          ],
          [
            -99.062379,
            19.4448166
          ],
          [
            -99.062292,
            19.4448038
          ],
          [
            -99.062186,
            19.4448128
          ],
          [
            -99.0517567,
            19.4486528
          ],
          [
            -99.0516652,
            19.4487118
          ],
          [
            -99.0515998,
            19.4487828
          ],
          [
            -99.0510067,
            19.4497275
          ],
          [
            -99.050947,
            19.4498012
          ],
          [
            -99.0508888,
            19.4498467
          ],
          [
            -99.0508362,
            19.4498695
          ],
          [
            -99.0507695,
            19.4498815
          ],
          [
            -99.0507268,
            19.4498748
          ],
          [
            -99.0506572,
            19.4498414
          ],
          [
            -99.0505919,
            19.4497771
          ],
          [
            -99.0500607,
            19.4485185
          ],
          [
            -99.0500192,
            19.4483972
          ],
          [
            -99.0499904,
            19.4483231
          ],
          [
            -99.0499362,
            19.448148
          ],
          [
            -99.0498197,
            19.447742
          ],
          [
            -99.0497244,
            19.4475193
          ],
          [
            -99.0495859,
            19.447307
          ],
          [
            -99.0494677,
            19.4470916
          ],
          [
            -99.0487032,
            19.4453699
          ],
          [
            -99.0487827,
            19.44522
          ],
          [
            -99.0488557,
            19.445135
          ],
          [
            -99.0490189,
            19.4450175
          ],
          [
            -99.0529075,
            19.4428365
          ],
          [
            -99.0530299,
            19.4427838
          ],
          [
            -99.0533477,
            19.4426846
          ],
          [
            -99.0584943,
            19.439812
          ],
          [
            -99.0586031,
            19.4397266
          ],
          [
            -99.0586616,
            19.4396109
          ],
          [
            -99.05867,
            19.4394834
          ],
          [
            -99.0586254,
            19.4393585
          ],
          [
            -99.0579043,
            19.4381886
          ],
          [
            -99.057886,
            19.4380785
          ],
          [
            -99.0578972,
            19.4379908
          ],
          [
            -99.0579226,
            19.4379152
          ],
          [
            -99.0579929,
            19.4377984
          ],
          [
            -99.0598229,
            19.4367639
          ],
          [
            -99.0599272,
            19.4367485
          ],
          [
            -99.0599944,
            19.4367533
          ],
          [
            -99.0608316,
            19.4369588
          ],
          [
            -99.0612177,
            19.4371436
          ],
          [
            -99.0615038,
            19.4372211
          ],
          [
            -99.0616135,
            19.437237
          ],
          [
            -99.0616924,
            19.4372152
          ],
          [
            -99.0617712,
            19.4371847
          ],
          [
            -99.0659788,
            19.4348455
          ],
          [
            -99.0660606,
            19.4347922
          ],
          [
            -99.066123,
            19.4347206
          ],
          [
            -99.0661602,
            19.4346379
          ],
          [
            -99.0662583,
            19.4343757
          ],
          [
            -99.0663089,
            19.4342929
          ],
          [
            -99.0663833,
            19.4342256
          ],
          [
            -99.0675199,
            19.4335844
          ],
          [
            -99.0675556,
            19.4335451
          ],
          [
            -99.0675779,
            19.4334932
          ],
          [
            -99.0675987,
            19.4333852
          ]
        ]
      }
    },
    {
      "type": "Feature",
      "properties": {
        "name": "VIALIDAD PERIMETRAL SUR",
        "velocidad": "30"
      },
      "geometry": {
        "type": "LineString",
        "coordinates": [
          [
            -99.0676084,
            19.4333553
          ],
          [
            -99.0676042,
            19.4332084
          ],
          [
            -99.0676153,
            19.4331401
          ],
          [
            -99.0676835,
            19.4330142
          ],
          [
            -99.0677503,
            19.4329381
          ],
          [
            -99.0678212,
            19.4328913
          ],
          [
            -99.0680034,
            19.4327575
          ],
          [
            -99.0682218,
            19.4325777
          ],
          [
            -99.0682962,
            19.4324954
          ],
          [
            -99.0684798,
            19.4322501
          ],
          [
            -99.0687463,
            19.4319841
          ],
          [
            -99.0694438,
            19.4315909
          ],
          [
            -99.0695913,
            19.4315292
          ],
          [
            -99.0696455,
            19.4315214
          ],
          [
            -99.0697304,
            19.4315292
          ],
          [
            -99.0701871,
            19.4317247
          ],
          [
            -99.0702845,
            19.4317785
          ],
          [
            -99.0703763,
            19.4318401
          ],
          [
            -99.0704389,
            19.4318768
          ],
          [
            -99.0705251,
            19.431911
          ],
          [
            -99.0712319,
            19.4320265
          ],
          [
            -99.0714956,
            19.4320887
          ],
          [
            -99.0715847,
            19.4320913
          ],
          [
            -99.0716331,
            19.4320796
          ],
          [
            -99.0774928,
            19.4288796
          ],
          [
            -99.077609,
            19.4288501
          ],
          [
            -99.0784923,
            19.4288037
          ],
          [
            -99.0785847,
            19.4287911
          ],
          [
            -99.0787098,
            19.4287236
          ],
          [
            -99.0787903,
            19.4286717
          ],
          [
            -99.080006,
            19.4277473
          ],
          [
            -99.080264,
            19.4275563
          ],
          [
            -99.0807366,
            19.4272637
          ],
          [
            -99.0830063,
            19.4258617
          ],
          [
            -99.0831593,
            19.4257919
          ],
          [
            -99.0834411,
            19.4256476
          ],
          [
            -99.0839687,
            19.4253475
          ],
          [
            -99.0846846,
            19.4256411
          ],
          [
            -99.0848798,
            19.4257124
          ],
          [
            -99.0850717,
            19.4257271
          ],
          [
            -99.0851275,
            19.4257233
          ],
          [
            -99.0867737,
            19.4253859
          ],
          [
            -99.0872176,
            19.4252808
          ],
          [
            -99.0880108,
            19.4248701
          ],
          [
            -99.0881143,
            19.4248407
          ],
          [
            -99.0881965,
            19.4248454
          ],
          [
            -99.0882792,
            19.4248722
          ],
          [
            -99.0912214,
            19.4266308
          ],
          [
            -99.0912917,
            19.426687
          ],
          [
            -99.0913911,
            19.426775
          ],
          [
            -99.0914616,
            19.4268552
          ],
          [
            -99.0915227,
            19.4269662
          ],
          [
            -99.0915579,
            19.4270426
          ],
          [
            -99.0915898,
            19.4271386
          ],
          [
            -99.0916035,
            19.4272208
          ],
          [
            -99.0916096,
            19.4273116
          ],
          [
            -99.0916035,
            19.4274126
          ],
          [
            -99.0916007,
            19.427451
          ],
          [
            -99.0915487,
            19.4276298
          ],
          [
            -99.0914245,
            19.4278848
          ],
          [
            -99.0904982,
            19.4295214
          ]
        ]
      }
    },
    {
      "type": "Feature",
      "properties": {
        "name": "VIALIDAD EXTERNA",
        "velocidad": "20"
      },
      "geometry": {
        "type": "LineString",
        "coordinates": [
          [
            -99.066738,
            19.4340128
          ],
          [
            -99.0662075,
            19.433471
          ],
          [
            -99.065504,
            19.4327098
          ],
          [
            -99.0653403,
            19.4325704
          ],
          [
            -99.0642119,
            19.4313872
          ],
          [
            -99.0641046,
            19.4313441
          ],
          [
            -99.0637409,
            19.4309865
          ],
          [
            -99.0636478,
            19.4308783
          ],
          [
            -99.0636264,
            19.430809
          ],
          [
            -99.0636088,
            19.4307365
          ],
          [
            -99.0634968,
            19.4306202
          ],
          [
            -99.0634669,
            19.4306029
          ],
          [
            -99.0634025,
            19.4305918
          ],
          [
            -99.06335,
            19.430604
          ],
          [
            -99.0633127,
            19.4306275
          ],
          [
            -99.0632633,
            19.4307029
          ],
          [
            -99.0632444,
            19.4307633
          ],
          [
            -99.0632501,
            19.4307971
          ],
          [
            -99.0632571,
            19.4308203
          ],
          [
            -99.0653423,
            19.4330057
          ],
          [
            -99.0653619,
            19.4330501
          ],
          [
            -99.0654085,
            19.4331975
          ],
          [
            -99.0654267,
            19.4332378
          ],
          [
            -99.0658268,
            19.4336388
          ]
        ]
      }
    },
    {
      "type": "Feature",
      "properties": {
        "name": "VIALIDAD EXTERNA",
        "velocidad": "20"
      },
      "geometry": {
        "type": "LineString",
        "coordinates": [
          [
            -99.0662075,
            19.433471
          ],
          [
            -99.0652201,
            19.4340044
          ]
        ]
      }
    },
    {
      "type": "Feature",
      "properties": {
        "name": "VIALIDAD EXTERNA",
        "velocidad": "20"
      },
      "geometry": {
        "type": "LineString",
        "coordinates": [
          [
            -99.0687463,
            19.4319841
          ],
          [
            -99.0682937,
            19.4322367
          ],
          [
            -99.0679752,
            19.4324135
          ],
          [
            -99.0676634,
            19.4325878
          ],
          [
            -99.067312,
            19.4328659
          ],
          [
            -99.0662196,
            19.4317486
          ],
          [
            -99.067006,
            19.431083
          ],
          [
            -99.0670797,
            19.4310582
          ],
          [
            -99.0671451,
            19.4310735
          ],
          [
            -99.068175,
            19.4321369
          ],
          [
            -99.0682937,
            19.4322367
          ]
        ]
      }
    },
    {
      "type": "Feature",
      "properties": {
        "name": "VIALIDAD EXTERNA",
        "velocidad": "20"
      },
      "geometry": {
        "type": "LineString",
        "coordinates": [
          [
            -99.0872176,
            19.4252808
          ],
          [
            -99.0871269,
            19.4252136
          ],
          [
            -99.0870809,
            19.4251747
          ],
          [
            -99.087058,
            19.4251372
          ],
          [
            -99.0870536,
            19.4250927
          ],
          [
            -99.0870625,
            19.4250581
          ],
          [
            -99.0873262,
            19.4246415
          ],
          [
            -99.0873286,
            19.4246127
          ],
          [
            -99.0873206,
            19.4245798
          ],
          [
            -99.0873053,
            19.4245539
          ],
          [
            -99.0864269,
            19.424049
          ],
          [
            -99.0863894,
            19.4240476
          ],
          [
            -99.0863547,
            19.4240523
          ],
          [
            -99.0863194,
            19.4240717
          ],
          [
            -99.0859739,
            19.4246068
          ],
          [
            -99.0859567,
            19.424661
          ],
          [
            -99.0859224,
            19.4248075
          ],
          [
            -99.0859139,
            19.4248368
          ],
          [
            -99.0858799,
            19.4248704
          ],
          [
            -99.0853462,
            19.4251268
          ],
          [
            -99.0853338,
            19.4251837
          ],
          [
            -99.0851337,
            19.4256239
          ],
          [
            -99.0850841,
            19.4257177
          ]
        ]
      }
    },
    {
      "type": "Feature",
      "properties": {
        "name": "VIALIDAD EXTERNA",
        "velocidad": "20"
      },
      "geometry": {
        "type": "LineString",
        "coordinates": [
          [
            -99.0853462,
            19.4251268
          ],
          [
            -99.085306,
            19.4246685
          ],
          [
            -99.0850828,
            19.4245702
          ],
          [
            -99.0835413,
            19.4239546
          ],
          [
            -99.0827665,
            19.423653
          ],
          [
            -99.0817128,
            19.4230783
          ]
        ]
      }
    },
    {
      "type": "Feature",
      "properties": {
        "name": "VIALIDAD EXTERNA",
        "velocidad": "20"
      },
      "geometry": {
        "type": "LineString",
        "coordinates": [
          [
            -99.0835413,
            19.4239546
          ],
          [
            -99.0831947,
            19.4247406
          ]
        ]
      }
    },
    {
      "type": "Feature",
      "properties": {
        "name": "VIALIDAD EXTERNA",
        "velocidad": "20"
      },
      "geometry": {
        "type": "LineString",
        "coordinates": [
          [
            -99.0839687,
            19.4253475
          ],
          [
            -99.083504,
            19.4251487
          ],
          [
            -99.0834191,
            19.4251046
          ],
          [
            -99.083381,
            19.4250623
          ],
          [
            -99.0828896,
            19.424252
          ],
          [
            -99.0827945,
            19.4241419
          ],
          [
            -99.082266,
            19.423845
          ],
          [
            -99.0818083,
            19.4236733
          ],
          [
            -99.0816746,
            19.4236404
          ],
          [
            -99.0815797,
            19.4236338
          ],
          [
            -99.0814007,
            19.4236653
          ],
          [
            -99.0808549,
            19.423707
          ],
          [
            -99.0807917,
            19.4237006
          ],
          [
            -99.0807275,
            19.4236803
          ],
          [
            -99.0806778,
            19.4236524
          ],
          [
            -99.0804733,
            19.4238691
          ],
          [
            -99.0803532,
            19.4240083
          ],
          [
            -99.080148,
            19.4242677
          ],
          [
            -99.0801179,
            19.4243066
          ],
          [
            -99.0798933,
            19.4245405
          ],
          [
            -99.0797858,
            19.4246934
          ],
          [
            -99.0797207,
            19.4247709
          ],
          [
            -99.0796277,
            19.4248414
          ],
          [
            -99.0789021,
            19.4252375
          ],
          [
            -99.0787974,
            19.4252864
          ],
          [
            -99.0786479,
            19.4253251
          ],
          [
            -99.0785523,
            19.4253295
          ],
          [
            -99.078469,
            19.4252978
          ],
          [
            -99.0777712,
            19.4249638
          ],
          [
            -99.0777237,
            19.4249261
          ],
          [
            -99.077514,
            19.4245927
          ],
          [
            -99.0771722,
            19.4240649
          ],
          [
            -99.0771467,
            19.4239747
          ],
          [
            -99.0771363,
            19.4238465
          ],
          [
            -99.0771504,
            19.4237867
          ],
          [
            -99.0771942,
            19.4237324
          ],
          [
            -99.0771811,
            19.4236028
          ],
          [
            -99.077304,
            19.4233315
          ],
          [
            -99.077292,
            19.4232691
          ],
          [
            -99.077129,
            19.4230191
          ]
        ]
      }
    },
    {
      "type": "Feature",
      "properties": {
        "name": "VIALIDAD EXTERNA",
        "velocidad": "20"
      },
      "geometry": {
        "type": "LineString",
        "coordinates": [
          [
            -99.0815797,
            19.4236338
          ],
          [
            -99.0815706,
            19.4233691
          ],
          [
            -99.0816306,
            19.4226539
          ],
          [
            -99.0816543,
            19.4225911
          ],
          [
            -99.0818535,
            19.4222874
          ],
          [
            -99.0819723,
            19.4221091
          ],
          [
            -99.0820144,
            19.422051
          ],
          [
            -99.0821354,
            19.4218848
          ],
          [
            -99.081776,
            19.4216817
          ],
          [
            -99.0814368,
            19.4214945
          ],
          [
            -99.0811028,
            19.4213045
          ],
          [
            -99.080769,
            19.4211125
          ],
          [
            -99.0804345,
            19.4209328
          ],
          [
            -99.0800975,
            19.4207346
          ],
          [
            -99.0797953,
            19.4205528
          ]
        ]
      }
    },
    {
      "type": "Feature",
      "properties": {
        "name": "VIALIDAD EXTERNA",
        "velocidad": "20"
      },
      "geometry": {
        "type": "LineString",
        "coordinates": [
          [
            -99.0818535,
            19.4222874
          ],
          [
            -99.081281,
            19.4219817
          ],
          [
            -99.0808987,
            19.421759
          ],
          [
            -99.0805412,
            19.421556
          ],
          [
            -99.0801933,
            19.4213529
          ],
          [
            -99.0798308,
            19.4211474
          ],
          [
            -99.079531,
            19.4209802
          ]
        ]
      }
    },
    {
      "type": "Feature",
      "properties": {
        "name": "VIALIDAD EXTERNA",
        "velocidad": "20"
      },
      "geometry": {
        "type": "LineString",
        "coordinates": [
          [
            -99.0904982,
            19.4295214
          ],
          [
            -99.0901888,
            19.4300496
          ],
          [
            -99.0896972,
            19.4309386
          ],
          [
            -99.0896122,
            19.4310872
          ],
          [
            -99.0895389,
            19.4312038
          ],
          [
            -99.0891873,
            19.4317067
          ],
          [
            -99.0890667,
            19.4318732
          ],
          [
            -99.089003,
            19.4319507
          ],
          [
            -99.0889596,
            19.4319701
          ],
          [
            -99.0889164,
            19.4319745
          ],
          [
            -99.0888671,
            19.4319668
          ],
          [
            -99.0885193,
            19.4317506
          ],
          [
            -99.0874806,
            19.4310971
          ],
          [
            -99.0870455,
            19.4313145
          ],
          [
            -99.0862725,
            19.4317525
          ],
          [
            -99.0859946,
            19.4318984
          ],
          [
            -99.0858035,
            19.4319182
          ],
          [
            -99.0856253,
            19.4320053
          ],
          [
            -99.0855663,
            19.4320468
          ],
          [
            -99.0855478,
            19.4320763
          ],
          [
            -99.0855329,
            19.4321179
          ],
          [
            -99.0854883,
            19.4321786
          ],
          [
            -99.085421,
            19.4322275
          ],
          [
            -99.0849128,
            19.4325058
          ],
          [
            -99.0847256,
            19.4326202
          ],
          [
            -99.0842474,
            19.4328919
          ],
          [
            -99.0840464,
            19.433
          ],
          [
            -99.0838223,
            19.433128
          ],
          [
            -99.0835898,
            19.4332545
          ],
          [
            -99.0834572,
            19.4333338
          ],
          [
            -99.0829984,
            19.4335892
          ],
          [
            -99.0828053,
            19.4336881
          ],
          [
            -99.0826311,
            19.433794
          ],
          [
            -99.0821053,
            19.4340901
          ],
          [
            -99.0819294,
            19.4341811
          ],
          [
            -99.0817985,
            19.4342132
          ],
          [
            -99.0816132,
            19.4342984
          ],
          [
            -99.0815681,
            19.4343337
          ],
          [
            -99.0814879,
            19.4344338
          ],
          [
            -99.081174,
            19.4346184
          ],
          [
            -99.0809229,
            19.4347498
          ],
          [
            -99.0805726,
            19.434949
          ],
          [
            -99.0802943,
            19.4350998
          ],
          [
            -99.0799931,
            19.4352792
          ],
          [
            -99.079583,
            19.4354963
          ],
          [
            -99.0794944,
            19.4355415
          ],
          [
            -99.0793272,
            19.4355845
          ],
          [
            -99.0792628,
            19.4356096
          ],
          [
            -99.0783068,
            19.4361435
          ],
          [
            -99.0779268,
            19.4363521
          ],
          [
            -99.0776683,
            19.4365111
          ],
          [
            -99.0772238,
            19.4367563
          ],
          [
            -99.0769679,
            19.4368925
          ],
          [
            -99.0765515,
            19.437128
          ],
          [
            -99.0765073,
            19.4371773
          ],
          [
            -99.0764976,
            19.4372253
          ],
          [
            -99.0765026,
            19.4372704
          ],
          [
            -99.0766082,
            19.4374445
          ],
          [
            -99.0767399,
            19.4376316
          ],
          [
            -99.0767449,
            19.4376985
          ],
          [
            -99.0767365,
            19.4377723
          ],
          [
            -99.0767241,
            19.437813
          ],
          [
            -99.0766705,
            19.4378863
          ],
          [
            -99.0752244,
            19.438748
          ],
          [
            -99.0751945,
            19.4387663
          ],
          [
            -99.0751679,
            19.4388004
          ],
          [
            -99.0751164,
            19.4388882
          ],
          [
            -99.0750397,
            19.4389532
          ],
          [
            -99.0750104,
            19.4389849
          ],
          [
            -99.0749959,
            19.4390245
          ],
          [
            -99.0750017,
            19.4390813
          ],
          [
            -99.0750201,
            19.4391125
          ],
          [
            -99.075093,
            19.4391795
          ],
          [
            -99.075367,
            19.439602
          ],
          [
            -99.0754265,
            19.4396982
          ],
          [
            -99.0754736,
            19.4397737
          ],
          [
            -99.0755041,
            19.4398316
          ],
          [
            -99.075525,
            19.4398912
          ],
          [
            -99.0755236,
            19.4399633
          ],
          [
            -99.0755116,
            19.4400092
          ],
          [
            -99.0754821,
            19.4400588
          ],
          [
            -99.0754557,
            19.4400845
          ],
          [
            -99.0753763,
            19.4401259
          ],
          [
            -99.0752573,
            19.4401993
          ],
          [
            -99.0744473,
            19.4406426
          ],
          [
            -99.0743761,
            19.4407133
          ],
          [
            -99.0743512,
            19.4407962
          ],
          [
            -99.0743485,
            19.4408715
          ],
          [
            -99.0743594,
            19.4409331
          ],
          [
            -99.0743898,
            19.4410036
          ],
          [
            -99.0745359,
            19.4412353
          ],
          [
            -99.0745891,
            19.4413077
          ],
          [
            -99.0746509,
            19.4413734
          ],
          [
            -99.0747275,
            19.441418
          ],
          [
            -99.0748103,
            19.4414509
          ],
          [
            -99.0756362,
            19.4416575
          ]
        ]
      }
    },
    {
      "type": "Feature",
      "properties": {
        "name": "VIALIDAD EXTERNA",
        "velocidad": "20"
      },
      "geometry": {
        "type": "LineString",
        "coordinates": [
          [
            -99.0753624,
            19.4396103
          ],
          [
            -99.0746483,
            19.4399993
          ],
          [
            -99.0744395,
            19.4401161
          ],
          [
            -99.0738171,
            19.4404721
          ],
          [
            -99.0733403,
            19.4407317
          ],
          [
            -99.0733131,
            19.4407421
          ],
          [
            -99.0732121,
            19.4407554
          ],
          [
            -99.0731503,
            19.4407463
          ],
          [
            -99.0731164,
            19.4407342
          ],
          [
            -99.0730903,
            19.4407125
          ],
          [
            -99.0727508,
            19.4401783
          ],
          [
            -99.0726176,
            19.4399399
          ],
          [
            -99.07257,
            19.4397911
          ],
          [
            -99.0724108,
            19.4395283
          ],
          [
            -99.0718,
            19.4398515
          ],
          [
            -99.0717353,
            19.439882
          ],
          [
            -99.0714845,
            19.4400223
          ],
          [
            -99.0711636,
            19.4401914
          ],
          [
            -99.0703047,
            19.4406726
          ],
          [
            -99.0696661,
            19.4410293
          ],
          [
            -99.0695272,
            19.4411085
          ],
          [
            -99.0693502,
            19.4412037
          ],
          [
            -99.0691367,
            19.4413153
          ],
          [
            -99.0690854,
            19.441339
          ],
          [
            -99.0689806,
            19.4414044
          ],
          [
            -99.0645739,
            19.4438637
          ],
          [
            -99.0644891,
            19.4439051
          ],
          [
            -99.0643057,
            19.4440124
          ],
          [
            -99.0641419,
            19.4441864
          ],
          [
            -99.0640884,
            19.4442744
          ],
          [
            -99.0640431,
            19.4443742
          ],
          [
            -99.0639879,
            19.4444861
          ],
          [
            -99.0639261,
            19.4446047
          ]
        ]
      }
    },
    {
      "type": "Feature",
      "properties": {
        "name": "VIALIDAD EXTERNA",
        "velocidad": "20"
      },
      "geometry": {
        "type": "LineString",
        "coordinates": [
          [
            -99.073087,
            19.4407222
          ],
          [
            -99.0730871,
            19.4407715
          ],
          [
            -99.0730778,
            19.4407959
          ],
          [
            -99.0730337,
            19.4408629
          ],
          [
            -99.0695304,
            19.4428548
          ],
          [
            -99.0694901,
            19.4428606
          ],
          [
            -99.0694685,
            19.4428587
          ],
          [
            -99.0694254,
            19.4428241
          ],
          [
            -99.0691358,
            19.4423586
          ],
          [
            -99.0690782,
            19.4422485
          ],
          [
            -99.0690258,
            19.4422293
          ],
          [
            -99.0689885,
            19.4422334
          ],
          [
            -99.0689475,
            19.4422551
          ],
          [
            -99.0678857,
            19.4428501
          ],
          [
            -99.0671515,
            19.4432713
          ],
          [
            -99.0668113,
            19.4434825
          ],
          [
            -99.0656382,
            19.4441482
          ],
          [
            -99.0651908,
            19.4443968
          ],
          [
            -99.0651501,
            19.4444153
          ],
          [
            -99.0650648,
            19.44444
          ],
          [
            -99.0650114,
            19.4444363
          ],
          [
            -99.0649262,
            19.4444086
          ],
          [
            -99.064863,
            19.4443576
          ],
          [
            -99.0645782,
            19.4438757
          ]
        ]
      }
    },
    {
      "type": "Feature",
      "properties": {
        "name": "VIALIDAD EXTERNA",
        "velocidad": "20"
      },
      "geometry": {
        "type": "LineString",
        "coordinates": [
          [
            -99.0790716,
            19.4373704
          ],
          [
            -99.0787211,
            19.4368309
          ],
          [
            -99.0783068,
            19.4361435
          ]
        ]
      }
    },
    {
      "type": "Feature",
      "properties": {
        "name": "VIALIDAD EXTERNA",
        "velocidad": "20"
      },
      "geometry": {
        "type": "LineString",
        "coordinates": [
          [
            -99.0786975,
            19.4375815
          ],
          [
            -99.0781067,
            19.4366506
          ],
          [
            -99.0779268,
            19.4363521
          ]
        ]
      }
    },
    {
      "type": "Feature",
      "properties": {
        "name": "VIALIDAD EXTERNA",
        "velocidad": "20"
      },
      "geometry": {
        "type": "LineString",
        "coordinates": [
          [
            -99.0885193,
            19.4317506
          ],
          [
            -99.0883644,
            19.4318334
          ],
          [
            -99.0883174,
            19.4318686
          ],
          [
            -99.0881638,
            19.432093
          ],
          [
            -99.0881498,
            19.432136
          ],
          [
            -99.0881535,
            19.4322037
          ],
          [
            -99.0881799,
            19.4323506
          ],
          [
            -99.0881886,
            19.432416
          ],
          [
            -99.0881832,
            19.4324886
          ],
          [
            -99.0881508,
            19.4326422
          ],
          [
            -99.0881289,
            19.4327078
          ],
          [
            -99.0878869,
            19.433081
          ],
          [
            -99.0878477,
            19.4331416
          ],
          [
            -99.0877586,
            19.4331968
          ],
          [
            -99.0874258,
            19.4333322
          ],
          [
            -99.0873556,
            19.4333452
          ],
          [
            -99.0869927,
            19.4333229
          ],
          [
            -99.0869505,
            19.4333138
          ],
          [
            -99.0868988,
            19.433274
          ],
          [
            -99.0866532,
            19.4328933
          ],
          [
            -99.0865417,
            19.4327958
          ]
        ]
      }
    },
    {
      "type": "Feature",
      "properties": {
        "name": "VIALIDAD INTERNA T1 Y T2",
        "velocidad": "10"
      },
      "geometry": {
        "type": "LineString",
        "coordinates": [
          [
            -99.08215,
            19.4218811
          ],
          [
            -99.0823465,
            19.4215177
          ],
          [
            -99.0823287,
            19.421462
          ],
          [
            -99.0821713,
            19.4213666
          ],
          [
            -99.0803422,
            19.4202588
          ],
          [
            -99.0802446,
            19.4202352
          ],
          [
            -99.0801615,
            19.4202235
          ],
          [
            -99.0800271,
            19.4202312
          ],
          [
            -99.0799706,
            19.420245
          ],
          [
            -99.0797953,
            19.4205528
          ],
          [
            -99.0792582,
            19.4214151
          ],
          [
            -99.0792452,
            19.4214381
          ],
          [
            -99.0792477,
            19.4214732
          ],
          [
            -99.0792775,
            19.4215082
          ],
          [
            -99.0798875,
            19.4218271
          ],
          [
            -99.0810884,
            19.4225156
          ],
          [
            -99.0811241,
            19.4225489
          ],
          [
            -99.0811519,
            19.422633
          ],
          [
            -99.0804952,
            19.4227687
          ],
          [
            -99.0804593,
            19.4227626
          ],
          [
            -99.0795908,
            19.4222756
          ],
          [
            -99.0789376,
            19.4218897
          ],
          [
            -99.0788903,
            19.4218707
          ],
          [
            -99.0788537,
            19.4218747
          ],
          [
            -99.0788199,
            19.4218933
          ],
          [
            -99.0785634,
            19.4222511
          ],
          [
            -99.078325,
            19.422626
          ],
          [
            -99.0781072,
            19.4229811
          ],
          [
            -99.078101,
            19.4230292
          ],
          [
            -99.0781166,
            19.4230768
          ],
          [
            -99.0784654,
            19.4236635
          ],
          [
            -99.0789391,
            19.4244292
          ],
          [
            -99.0784871,
            19.4246756
          ],
          [
            -99.0780038,
            19.4239089
          ],
          [
            -99.0777372,
            19.4234838
          ],
          [
            -99.0777078,
            19.4234697
          ],
          [
            -99.0776836,
            19.4234693
          ],
          [
            -99.0776677,
            19.423472
          ],
          [
            -99.0772099,
            19.4237253
          ]
        ]
      }
    },
    {
      "type": "Feature",
      "properties": {
        "name": "VIALIDAD INTERNA T1 Y T2",
        "velocidad": "10"
      },
      "geometry": {
        "type": "LineString",
        "coordinates": [
          [
            -99.0793356,
            19.4227033
          ],
          [
            -99.079593,
            19.4222742
          ],
          [
            -99.0798946,
            19.4218288
          ],
          [
            -99.0801933,
            19.4213529
          ]
        ]
      }
    },
    {
      "type": "Feature",
      "properties": {
        "name": "VIALIDAD INTERNA T1 Y T2",
        "velocidad": "10"
      },
      "geometry": {
        "type": "LineString",
        "coordinates": [
          [
            -99.0790105,
            19.4232916
          ],
          [
            -99.078464,
            19.4236642
          ],
          [
            -99.0780038,
            19.4239089
          ]
        ]
      }
    },
    {
      "type": "Feature",
      "properties": {
        "name": "VIALIDAD INTERNA T1 Y T2",
        "velocidad": "10"
      },
      "geometry": {
        "type": "LineString",
        "coordinates": [
          [
            -99.0865417,
            19.4327958
          ],
          [
            -99.0800796,
            19.4362988
          ],
          [
            -99.080093,
            19.4363992
          ],
          [
            -99.0796139,
            19.4366608
          ],
          [
            -99.0795513,
            19.4368085
          ],
          [
            -99.0796071,
            19.4368994
          ],
          [
            -99.079617,
            19.4369515
          ],
          [
            -99.0796161,
            19.4369951
          ],
          [
            -99.0795885,
            19.437066
          ],
          [
            -99.0795532,
            19.4370996
          ],
          [
            -99.0794637,
            19.4371674
          ],
          [
            -99.0790684,
            19.4373722
          ],
          [
            -99.078697,
            19.4375861
          ],
          [
            -99.0781544,
            19.4378943
          ],
          [
            -99.0781662,
            19.438003
          ],
          [
            -99.0779097,
            19.4381506
          ]
        ]
      }
    }
  ]
}