{
    "type": "FeatureCollection",
    "features": [
      {
        "type": "Feature",
        "properties": {
          "name": "ZPV1",
          "@circle": {
            "type": "Mercator",
            "center": [
              -99.0883693,
              19.4318411
            ]
          }
        },
        "geometry": {
          "type": "Polygon",
          "coordinates": [
            [
              [
                -99.08797697620868,
                19.43184114015819
              ],
              [
                -99.08797775038035,
                19.43186437146402
              ],
              [
                -99.08798006984009,
                19.431887511083197
              ],
              [
                -99.08798392543402,
                19.431910467694262
              ],
              [
                -99.08798930194591,
                19.431933150698075
              ],
              [
                -99.0879961781571,
                19.4319554705753
              ],
              [
                -99.08800452693033,
                19.43197733923975
              ],
              [
                -99.08801431531678,
                19.43199867038602
              ],
              [
                -99.08802550468623,
                19.432019379830013
              ],
              [
                -99.08803805087929,
                19.43203938584129
              ],
              [
                -99.08805190438189,
                19.43205860946553
              ],
              [
                -99.08806701052056,
                19.432076974836182
              ],
              [
                -99.08808330967832,
                19.43209440947378
              ],
              [
                -99.0881007375298,
                19.432110844572122
              ],
              [
                -99.08811922529524,
                19.432126215269683
              ],
              [
                -99.0881387000119,
                19.432140460905657
              ],
              [
                -99.08815908482194,
                19.432153525259306
              ],
              [
                -99.08818029927583,
                19.432165356771925
              ],
              [
                -99.08820225964983,
                19.432175908750196
              ],
              [
                -99.08822487927637,
                19.432185139550516
              ],
              [
                -99.08824806888609,
                19.432193012743383
              ],
              [
                -99.08827173696025,
                19.43219949725711
              ],
              [
                -99.08829579009176,
                19.432204567500417
              ],
              [
                -99.08832013335385,
                19.43220820346352
              ],
              [
                -99.08834467067481,
                19.432210390797053
              ],
              [
                -99.08836930521709,
                19.432211120868637
              ],
              [
                -99.08839393975937,
                19.432210390797053
              ],
              [
                -99.08841847708035,
                19.43220820346352
              ],
              [
                -99.08844282034244,
                19.432204567500417
              ],
              [
                -99.08846687347393,
                19.43219949725711
              ],
              [
                -99.0884905415481,
                19.432193012743383
              ],
              [
                -99.08851373115783,
                19.432185139550516
              ],
              [
                -99.08853635078437,
                19.432175908750196
              ],
              [
                -99.08855831115835,
                19.432165356771925
              ],
              [
                -99.08857952561225,
                19.432153525259306
              ],
              [
                -99.08859991042229,
                19.432140460905657
              ],
              [
                -99.08861938513894,
                19.432126215269683
              ],
              [
                -99.08863787290439,
                19.432110844572122
              ],
              [
                -99.08865530075586,
                19.43209440947378
              ],
              [
                -99.08867159991362,
                19.432076974836182
              ],
              [
                -99.08868670605231,
                19.43205860946553
              ],
              [
                -99.08870055955491,
                19.43203938584129
              ],
              [
                -99.08871310574796,
                19.432019379830013
              ],
              [
                -99.08872429511737,
                19.43199867038602
              ],
              [
                -99.08873408350385,
                19.43197733923975
              ],
              [
                -99.08874243227709,
                19.4319554705753
              ],
              [
                -99.08874930848827,
                19.431933150698075
              ],
              [
                -99.08875468500017,
                19.431910467694262
              ],
              [
                -99.0887585405941,
                19.431887511083197
              ],
              [
                -99.08876086005384,
                19.43186437146402
              ],
              [
                -99.0887616342255,
                19.43184114015819
              ],
              [
                -99.08876086005384,
                19.431817908849045
              ],
              [
                -99.0887585405941,
                19.431794769219955
              ],
              [
                -99.08875468500017,
                19.43177181259253
              ],
              [
                -99.08874930848827,
                19.4317491295662
              ],
              [
                -99.08874243227709,
                19.431726809660617
              ],
              [
                -99.08873408350385,
                19.431704940962415
              ],
              [
                -99.08872429511737,
                19.431683609777586
              ],
              [
                -99.08871310574796,
                19.431662900290767
              ],
              [
                -99.08870055955491,
                19.431642894233118
              ],
              [
                -99.08868670605231,
                19.43162367055967
              ],
              [
                -99.08867159991362,
                19.431605305137758
              ],
              [
                -99.08865530075586,
                19.431587870447643
              ],
              [
                -99.08863787290439,
                19.43157143529639
              ],
              [
                -99.08861938513894,
                19.431556064546324
              ],
              [
                -99.08859991042229,
                19.431541818859095
              ],
              [
                -99.08857952561225,
                19.43152875445623
              ],
              [
                -99.08855831115835,
                19.43151692289724
              ],
              [
                -99.08853635078437,
                19.43150637087616
              ],
              [
                -99.08851373115783,
                19.431497140037255
              ],
              [
                -99.0884905415481,
                19.431489266810647
              ],
              [
                -99.08846687347393,
                19.431482782268578
              ],
              [
                -99.08844282034244,
                19.43147771200274
              ],
              [
                -99.08841847708035,
                19.431474076023274
              ],
              [
                -99.08839393975937,
                19.43147188867983
              ],
              [
                -99.08836930521709,
                19.431471158604914
              ],
              [
                -99.08834467067481,
                19.43147188867983
              ],
              [
                -99.08832013335385,
                19.431474076023274
              ],
              [
                -99.08829579009176,
                19.43147771200274
              ],
              [
                -99.08827173696025,
                19.431482782268578
              ],
              [
                -99.08824806888609,
                19.431489266810647
              ],
              [
                -99.08822487927637,
                19.431497140037255
              ],
              [
                -99.08820225964983,
                19.43150637087616
              ],
              [
                -99.08818029927583,
                19.43151692289724
              ],
              [
                -99.08815908482194,
                19.43152875445623
              ],
              [
                -99.0881387000119,
                19.431541818859095
              ],
              [
                -99.08811922529524,
                19.431556064546324
              ],
              [
                -99.0881007375298,
                19.43157143529639
              ],
              [
                -99.08808330967832,
                19.431587870447643
              ],
              [
                -99.08806701052056,
                19.431605305137758
              ],
              [
                -99.08805190438189,
                19.43162367055967
              ],
              [
                -99.08803805087929,
                19.431642894233118
              ],
              [
                -99.08802550468623,
                19.431662900290767
              ],
              [
                -99.08801431531678,
                19.431683609777586
              ],
              [
                -99.08800452693033,
                19.431704940962415
              ],
              [
                -99.0879961781571,
                19.431726809660617
              ],
              [
                -99.08798930194591,
                19.4317491295662
              ],
              [
                -99.08798392543402,
                19.43177181259253
              ],
              [
                -99.08798006984009,
                19.431794769219955
              ],
              [
                -99.08797697620868,
                19.43184114015819
              ]
            ]
          ]
        }
      },
      {
        "type": "Feature",
        "properties": {
          "name": "ZPV2",
          "@circle": {
            "type": "Mercator",
            "center": [
              -99.0750463,
              19.4386511
            ]
          }
        },
        "geometry": {
          "type": "Polygon",
          "coordinates": [
            [
              [
                -99.07449307543929,
                19.438651138830547
              ],
              [
                -99.0744941670632,
                19.438683894852197
              ],
              [
                -99.07449743762673,
                19.438716521594248
              ],
              [
                -99.07450287422252,
                19.438748890293944
              ],
              [
                -99.07451045539476,
                19.438780873207012
              ],
              [
                -99.07452015122408,
                19.438812344111764
              ],
              [
                -99.07453192344538,
                19.438843178807254
              ],
              [
                -99.07454572559918,
                19.43887325560344
              ],
              [
                -99.07456150321464,
                19.43890245580137
              ],
              [
                -99.07457919402472,
                19.438930664161727
              ],
              [
                -99.07459872821188,
                19.438957769359533
              ],
              [
                -99.07462002868361,
                19.438983664423557
              ],
              [
                -99.07464301137668,
                19.439008247158394
              ],
              [
                -99.07466758558887,
                19.43903142054785
              ],
              [
                -99.07469365433705,
                19.439053093137755
              ],
              [
                -99.07472111473972,
                19.439073179396907
              ],
              [
                -99.07474985842326,
                19.43909160005465
              ],
              [
                -99.07477977194945,
                19.43910828241361
              ],
              [
                -99.0748107372633,
                19.439123160636704
              ],
              [
                -99.07484263215883,
                19.43913617600689
              ],
              [
                -99.07487533076149,
                19.439147277158877
              ],
              [
                -99.07490870402484,
                19.439156420281915
              ],
              [
                -99.07494262023981,
                19.43916356929258
              ],
              [
                -99.07497694555464,
                19.439168695977276
              ],
              [
                -99.07501154450296,
                19.439171780103518
              ],
              [
                -99.07504628053854,
                19.43917280949976
              ],
              [
                -99.07508101657415,
                19.439171780103518
              ],
              [
                -99.07511561552246,
                19.439168695977276
              ],
              [
                -99.07514994083726,
                19.43916356929258
              ],
              [
                -99.07518385705225,
                19.439156420281915
              ],
              [
                -99.07521723031559,
                19.439147277158877
              ],
              [
                -99.07524992891825,
                19.43913617600689
              ],
              [
                -99.0752818238138,
                19.439123160636704
              ],
              [
                -99.07531278912765,
                19.43910828241361
              ],
              [
                -99.07534270265384,
                19.43909160005465
              ],
              [
                -99.07537144633739,
                19.439073179396907
              ],
              [
                -99.07539890674005,
                19.439053093137755
              ],
              [
                -99.07542497548822,
                19.43903142054785
              ],
              [
                -99.07544954970042,
                19.439008247158394
              ],
              [
                -99.07547253239349,
                19.438983664423557
              ],
              [
                -99.0754938328652,
                19.438957769359533
              ],
              [
                -99.07551336705237,
                19.438930664161727
              ],
              [
                -99.07553105786246,
                19.43890245580137
              ],
              [
                -99.07554683547791,
                19.43887325560344
              ],
              [
                -99.0755606376317,
                19.438843178807254
              ],
              [
                -99.07557240985302,
                19.438812344111764
              ],
              [
                -99.07558210568233,
                19.438780873207012
              ],
              [
                -99.07558968685457,
                19.438748890293944
              ],
              [
                -99.07559512345037,
                19.438716521594248
              ],
              [
                -99.0755983940139,
                19.438683894852197
              ],
              [
                -99.07559948563778,
                19.438651138830547
              ],
              [
                -99.0755983940139,
                19.438618382802268
              ],
              [
                -99.07559512345037,
                19.43858575604051
              ],
              [
                -99.07558968685457,
                19.438553387308282
              ],
              [
                -99.07558210568233,
                19.438521404350396
              ],
              [
                -99.07557240985302,
                19.438489933389256
              ],
              [
                -99.0755606376317,
                19.438459098626673
              ],
              [
                -99.07554683547791,
                19.43842902175377
              ],
              [
                -99.07553105786246,
                19.43839982147068
              ],
              [
                -99.07551336705237,
                19.43837161301808
              ],
              [
                -99.0754938328652,
                19.438344507722405
              ],
              [
                -99.07547253239349,
                19.43831861255645
              ],
              [
                -99.07544954970042,
                19.438294029717177
              ],
              [
                -99.07542497548822,
                19.438270856222488
              ],
              [
                -99.07539890674005,
                19.438249183528153
              ],
              [
                -99.07537144633739,
                19.438229097167046
              ],
              [
                -99.07534270265384,
                19.438210676411448
              ],
              [
                -99.07531278912765,
                19.43819399396025
              ],
              [
                -99.0752818238138,
                19.438179115652005
              ],
              [
                -99.07524992891825,
                19.43816610020509
              ],
              [
                -99.07521723031559,
                19.438154998986008
              ],
              [
                -99.07518385705225,
                19.438145855806585
              ],
              [
                -99.07514994083726,
                19.438138706751097
              ],
              [
                -99.07511561552246,
                19.438133580033874
              ],
              [
                -99.07508101657415,
                19.43813049588791
              ],
              [
                -99.07504628053854,
                19.438129466485066
              ],
              [
                -99.07501154450296,
                19.43813049588791
              ],
              [
                -99.07497694555464,
                19.438133580033874
              ],
              [
                -99.07494262023981,
                19.438138706751097
              ],
              [
                -99.07490870402484,
                19.438145855806585
              ],
              [
                -99.07487533076149,
                19.438154998986008
              ],
              [
                -99.07484263215883,
                19.43816610020509
              ],
              [
                -99.0748107372633,
                19.438179115652005
              ],
              [
                -99.07477977194945,
                19.43819399396025
              ],
              [
                -99.07474985842326,
                19.438210676411448
              ],
              [
                -99.07472111473972,
                19.438229097167046
              ],
              [
                -99.07469365433705,
                19.438249183528153
              ],
              [
                -99.07466758558887,
                19.438270856222488
              ],
              [
                -99.07464301137668,
                19.438294029717177
              ],
              [
                -99.07462002868361,
                19.43831861255645
              ],
              [
                -99.07459872821188,
                19.438344507722405
              ],
              [
                -99.07457919402472,
                19.43837161301808
              ],
              [
                -99.07456150321464,
                19.43839982147068
              ],
              [
                -99.07454572559918,
                19.43842902175377
              ],
              [
                -99.07453192344538,
                19.438459098626673
              ],
              [
                -99.07452015122408,
                19.438489933389256
              ],
              [
                -99.07451045539476,
                19.438521404350396
              ],
              [
                -99.07450287422252,
                19.438553387308282
              ],
              [
                -99.07449743762673,
                19.43858575604051
              ],
              [
                -99.07449307543929,
                19.438651138830547
              ]
            ]
          ]
        }
      },
      {
        "type": "Feature",
        "properties": {
          "name": "ZPV3",
          "@circle": {
            "type": "Mercator",
            "center": [
              -99.085886,
              19.425793
            ]
          }
        },
        "geometry": {
          "type": "Polygon",
          "coordinates": [
            [
              [
                -99.08514020871766,
                19.42579303586501
              ],
              [
                -99.085141680439,
                19.425837200848658
              ],
              [
                -99.08514608979485,
                19.42588119152136
              ],
              [
                -99.08515341938345,
                19.42592483427223
              ],
              [
                -99.08516364027828,
                19.425967956863637
              ],
              [
                -99.08517671214216,
                19.42601038911089
              ],
              [
                -99.08519258338639,
                19.426051963553885
              ],
              [
                -99.08521119137441,
                19.426092516118015
              ],
              [
                -99.08523246266904,
                19.426131886761667
              ],
              [
                -99.08525631332213,
                19.426169920107807
              ],
              [
                -99.08528264920612,
                19.426206466057184
              ],
              [
                -99.08531136638527,
                19.4262413803807
              ],
              [
                -99.08534235152598,
                19.426274525288527
              ],
              [
                -99.08537548234409,
                19.426305769974014
              ],
              [
                -99.08541062808736,
                19.426334991129774
              ],
              [
                -99.08544765005163,
                19.426362073434394
              ],
              [
                -99.08548640212811,
                19.426386910007466
              ],
              [
                -99.08552673138006,
                19.426409402831435
              ],
              [
                -99.08556847864634,
                19.426429463138405
              ],
              [
                -99.08561147916954,
                19.426447011760416
              ],
              [
                -99.0856555632463,
                19.426461979441893
              ],
              [
                -99.08570055689685,
                19.42647430711296
              ],
              [
                -99.08574628255187,
                19.426483946122552
              ],
              [
                -99.08579255975302,
                19.426490858430363
              ],
              [
                -99.08583920586538,
                19.426495016757027
              ],
              [
                -99.08588603679802,
                19.42649640469173
              ],
              [
                -99.08593286773065,
                19.426495016757027
              ],
              [
                -99.08597951384301,
                19.426490858430363
              ],
              [
                -99.08602579104416,
                19.426483946122552
              ],
              [
                -99.08607151669918,
                19.42647430711296
              ],
              [
                -99.08611651034973,
                19.426461979441893
              ],
              [
                -99.08616059442649,
                19.426447011760416
              ],
              [
                -99.0862035949497,
                19.426429463138405
              ],
              [
                -99.08624534221597,
                19.426409402831435
              ],
              [
                -99.08628567146792,
                19.426386910007466
              ],
              [
                -99.08632442354441,
                19.426362073434394
              ],
              [
                -99.08636144550867,
                19.426334991129774
              ],
              [
                -99.08639659125194,
                19.426305769974014
              ],
              [
                -99.08642972207006,
                19.426274525288527
              ],
              [
                -99.08646070721076,
                19.4262413803807
              ],
              [
                -99.08648942438991,
                19.426206466057184
              ],
              [
                -99.0865157602739,
                19.426169920107807
              ],
              [
                -99.086539610927,
                19.426131886761667
              ],
              [
                -99.08656088222162,
                19.426092516118015
              ],
              [
                -99.08657949020966,
                19.426051963553885
              ],
              [
                -99.08659536145389,
                19.42601038911089
              ],
              [
                -99.08660843331775,
                19.425967956863637
              ],
              [
                -99.08661865421259,
                19.42592483427223
              ],
              [
                -99.08662598380118,
                19.42588119152136
              ],
              [
                -99.08663039315704,
                19.425837200848658
              ],
              [
                -99.08663186487838,
                19.42579303586501
              ],
              [
                -99.08663039315704,
                19.42574887086935
              ],
              [
                -99.08662598380118,
                19.42570488016081
              ],
              [
                -99.08661865421259,
                19.425661237350845
              ],
              [
                -99.08660843331775,
                19.42561811467803
              ],
              [
                -99.08659536145389,
                19.425575682328336
              ],
              [
                -99.08657949020966,
                19.425534107763465
              ],
              [
                -99.08656088222162,
                19.425493555059948
              ],
              [
                -99.086539610927,
                19.425454184261607
              ],
              [
                -99.0865157602739,
                19.425416150747914
              ],
              [
                -99.08648942438991,
                19.42537960462076
              ],
              [
                -99.08646070721076,
                19.42534469011205
              ],
              [
                -99.08642972207006,
                19.425311545014527
              ],
              [
                -99.08639659125194,
                19.42528030013783
              ],
              [
                -99.08636144550867,
                19.425251078792364
              ],
              [
                -99.08632442354441,
                19.425223996302563
              ],
              [
                -99.08628567146792,
                19.42519915955171
              ],
              [
                -99.08624534221597,
                19.42517666656019
              ],
              [
                -99.0862035949497,
                19.42515660609853
              ],
              [
                -99.08616059442649,
                19.425139057337134
              ],
              [
                -99.08611651034973,
                19.425124089533778
              ],
              [
                -99.08607151669918,
                19.425111761760256
              ],
              [
                -99.08602579104416,
                19.42510212266926
              ],
              [
                -99.08597951384301,
                19.425095210302366
              ],
              [
                -99.08593286773065,
                19.425091051939873
              ],
              [
                -99.08588603679802,
                19.425089663993163
              ],
              [
                -99.08583920586538,
                19.425091051939873
              ],
              [
                -99.08579255975302,
                19.425095210302366
              ],
              [
                -99.08574628255187,
                19.42510212266926
              ],
              [
                -99.08570055689685,
                19.425111761760256
              ],
              [
                -99.0856555632463,
                19.425124089533778
              ],
              [
                -99.08561147916954,
                19.425139057337134
              ],
              [
                -99.08556847864634,
                19.42515660609853
              ],
              [
                -99.08552673138006,
                19.42517666656019
              ],
              [
                -99.08548640212811,
                19.42519915955171
              ],
              [
                -99.08544765005163,
                19.425223996302563
              ],
              [
                -99.08541062808736,
                19.425251078792364
              ],
              [
                -99.08537548234409,
                19.42528030013783
              ],
              [
                -99.08534235152598,
                19.425311545014527
              ],
              [
                -99.08531136638527,
                19.42534469011205
              ],
              [
                -99.08528264920612,
                19.42537960462076
              ],
              [
                -99.08525631332213,
                19.425416150747914
              ],
              [
                -99.08523246266904,
                19.425454184261607
              ],
              [
                -99.08521119137441,
                19.425493555059948
              ],
              [
                -99.08519258338639,
                19.425534107763465
              ],
              [
                -99.08517671214216,
                19.425575682328336
              ],
              [
                -99.08516364027828,
                19.42561811467803
              ],
              [
                -99.08515341938345,
                19.425661237350845
              ],
              [
                -99.08514608979485,
                19.42570488016081
              ],
              [
                -99.08514020871766,
                19.42579303586501
              ]
            ]
          ]
        }
      },
      {
        "type": "Feature",
        "properties": {
          "name": "ZPV4",
          "@circle": {
            "type": "Mercator",
            "center": [
              -99.0823527,
              19.4239606
            ]
          }
        },
        "geometry": {
          "type": "Polygon",
          "coordinates": [
            [
              [
                -99.08163568027386,
                19.42396059121537
              ],
              [
                -99.08163709510201,
                19.424003049365734
              ],
              [
                -99.08164133400273,
                19.424045339942154
              ],
              [
                -99.081648380247,
                19.424087296043222
              ],
              [
                -99.08165820602656,
                19.424128752087725
              ],
              [
                -99.08167077256351,
                19.424169544468008
              ],
              [
                -99.0816860302635,
                19.424209512195777
              ],
              [
                -99.08170391891134,
                19.424248497537302
              ],
              [
                -99.08172436790872,
                19.42428634663605
              ],
              [
                -99.08174729655276,
                19.42432291011972
              ],
              [
                -99.08177261435463,
                19.4243580436899
              ],
              [
                -99.08180022139649,
                19.424391608691373
              ],
              [
                -99.08183000872597,
                19.424423472659466
              ],
              [
                -99.08186185878608,
                19.42445350984266
              ],
              [
                -99.08189564587923,
                19.42448160169897
              ],
              [
                -99.08193123666314,
                19.424507637363728
              ],
              [
                -99.08196849067724,
                19.42453151408704
              ],
              [
                -99.08200726089703,
                19.42455313763937
              ],
              [
                -99.0820473943141,
                19.424572422683365
              ],
              [
                -99.08208873254021,
                19.424589293110586
              ],
              [
                -99.08213111243226,
                19.42460368234195
              ],
              [
                -99.08217436673618,
                19.42461553359039
              ],
              [
                -99.08221832474703,
                19.424624800085006
              ],
              [
                -99.08226281298255,
                19.424631445255613
              ],
              [
                -99.08230765586806,
                19.424635442877094
              ],
              [
                -99.08235267642915,
                19.424636777172847
              ],
              [
                -99.08239769699026,
                19.424635442877094
              ],
              [
                -99.08244253987576,
                19.424631445255613
              ],
              [
                -99.08248702811129,
                19.424624800085006
              ],
              [
                -99.08253098612212,
                19.42461553359039
              ],
              [
                -99.08257424042604,
                19.42460368234195
              ],
              [
                -99.08261662031809,
                19.424589293110586
              ],
              [
                -99.0826579585442,
                19.424572422683365
              ],
              [
                -99.08269809196129,
                19.42455313763937
              ],
              [
                -99.08273686218106,
                19.42453151408704
              ],
              [
                -99.08277411619517,
                19.424507637363728
              ],
              [
                -99.0828097069791,
                19.42448160169897
              ],
              [
                -99.08284349407222,
                19.42445350984266
              ],
              [
                -99.08287534413233,
                19.424423472659466
              ],
              [
                -99.08290513146181,
                19.424391608691373
              ],
              [
                -99.08293273850369,
                19.4243580436899
              ],
              [
                -99.08295805630554,
                19.42432291011972
              ],
              [
                -99.08298098494959,
                19.42428634663605
              ],
              [
                -99.08300143394696,
                19.424248497537302
              ],
              [
                -99.08301932259481,
                19.424209512195777
              ],
              [
                -99.0830345802948,
                19.424169544468008
              ],
              [
                -99.08304714683175,
                19.424128752087725
              ],
              [
                -99.08305697261133,
                19.424087296043222
              ],
              [
                -99.08306401885561,
                19.424045339942154
              ],
              [
                -99.0830682577563,
                19.424003049365734
              ],
              [
                -99.08306967258444,
                19.42396059121537
              ],
              [
                -99.0830682577563,
                19.423918133053895
              ],
              [
                -99.08306401885561,
                19.423875842444374
              ],
              [
                -99.08305697261133,
                19.42383388628869
              ],
              [
                -99.08304714683175,
                19.423792430168973
              ],
              [
                -99.0830345802948,
                19.423751637693996
              ],
              [
                -99.08301932259481,
                19.4237116698536
              ],
              [
                -99.08300143394696,
                19.423672684383273
              ],
              [
                -99.08298098494959,
                19.42363483514158
              ],
              [
                -99.08295805630554,
                19.423598271503067
              ],
              [
                -99.08293273850369,
                19.423563137768618
              ],
              [
                -99.08290513146181,
                19.42352957259598
              ],
              [
                -99.08287534413233,
                19.423497708452587
              ],
              [
                -99.08284349407222,
                19.423467671092705
              ],
              [
                -99.0828097069791,
                19.423439579061085
              ],
              [
                -99.08277411619517,
                19.4234135432252
              ],
              [
                -99.08273686218106,
                19.42338966633761
              ],
              [
                -99.08269809196129,
                19.423368042630436
              ],
              [
                -99.0826579585442,
                19.423348757443495
              ],
              [
                -99.08261662031809,
                19.42333188688746
              ],
              [
                -99.08257424042604,
                19.42331749754348
              ],
              [
                -99.08253098612212,
                19.423305646200358
              ],
              [
                -99.08248702811129,
                19.423296379630518
              ],
              [
                -99.08244253987576,
                19.42328973440531
              ],
              [
                -99.08239769699026,
                19.42328573675071
              ],
              [
                -99.08235267642915,
                19.423284402443862
              ],
              [
                -99.08230765586806,
                19.42328573675071
              ],
              [
                -99.08226281298255,
                19.42328973440531
              ],
              [
                -99.08221832474703,
                19.423296379630518
              ],
              [
                -99.08217436673618,
                19.423305646200358
              ],
              [
                -99.08213111243226,
                19.42331749754348
              ],
              [
                -99.08208873254021,
                19.42333188688746
              ],
              [
                -99.0820473943141,
                19.423348757443495
              ],
              [
                -99.08200726089703,
                19.423368042630436
              ],
              [
                -99.08196849067724,
                19.42338966633761
              ],
              [
                -99.08193123666314,
                19.4234135432252
              ],
              [
                -99.08189564587923,
                19.423439579061085
              ],
              [
                -99.08186185878608,
                19.423467671092705
              ],
              [
                -99.08183000872597,
                19.423497708452587
              ],
              [
                -99.08180022139649,
                19.42352957259598
              ],
              [
                -99.08177261435463,
                19.423563137768618
              ],
              [
                -99.08174729655276,
                19.423598271503067
              ],
              [
                -99.08172436790872,
                19.42363483514158
              ],
              [
                -99.08170391891134,
                19.423672684383273
              ],
              [
                -99.0816860302635,
                19.4237116698536
              ],
              [
                -99.08167077256351,
                19.423751637693996
              ],
              [
                -99.08165820602656,
                19.423792430168973
              ],
              [
                -99.081648380247,
                19.42383388628869
              ],
              [
                -99.08164133400273,
                19.423875842444374
              ],
              [
                -99.08163568027386,
                19.42396059121537
              ]
            ]
          ]
        }
      },
      {
        "type": "Feature",
        "properties": {
          "name": "ZPV5",
          "@circle": {
            "type": "Mercator",
            "center": [
              -99.0764328,
              19.4288358
            ]
          }
        },
        "geometry": {
          "type": "Polygon",
          "coordinates": [
            [
              [
                -99.07582409153656,
                19.428835752795017
              ],
              [
                -99.07582529271149,
                19.42887179825924
              ],
              [
                -99.0758288914958,
                19.42890770146055
              ],
              [
                -99.07583487368677,
                19.42894332070554
              ],
              [
                -99.07584321567539,
                19.428978515421548
              ],
              [
                -99.07585388453964,
                19.429013146711434
              ],
              [
                -99.07586683817438,
                19.429047077901718
              ],
              [
                -99.07588202545757,
                19.429080175081978
              ],
              [
                -99.0758993864519,
                19.429112307633325
              ],
              [
                -99.0759188526415,
                19.429143348743846
              ],
              [
                -99.07594034720216,
                19.429173175909124
              ],
              [
                -99.0759637853047,
                19.429201671415676
              ],
              [
                -99.07598907444965,
                19.42922872280548
              ],
              [
                -99.07601611483227,
                19.4292542233198
              ],
              [
                -99.07604479973656,
                19.42927807232053
              ],
              [
                -99.07607501595629,
                19.42930017568727
              ],
              [
                -99.07610664424185,
                19.429320446188893
              ],
              [
                -99.07613955977085,
                19.42933880382767
              ],
              [
                -99.07617363264073,
                19.429355176155067
              ],
              [
                -99.07620872838143,
                19.42936949855758
              ],
              [
                -99.07624470848609,
                19.429381714511784
              ],
              [
                -99.07628143095772,
                19.429391775807357
              ],
              [
                -99.07631875086943,
                19.429399642737383
              ],
              [
                -99.07635652093666,
                19.429405284255
              ],
              [
                -99.07639459209815,
                19.42940867809595
              ],
              [
                -99.07643281410444,
                19.429409810866428
              ],
              [
                -99.07647103611072,
                19.42940867809595
              ],
              [
                -99.07650910727222,
                19.429405284255
              ],
              [
                -99.07654687733944,
                19.429399642737383
              ],
              [
                -99.07658419725115,
                19.429391775807357
              ],
              [
                -99.07662091972277,
                19.429381714511784
              ],
              [
                -99.07665689982746,
                19.42936949855758
              ],
              [
                -99.07669199556815,
                19.429355176155067
              ],
              [
                -99.07672606843802,
                19.42933880382767
              ],
              [
                -99.07675898396703,
                19.429320446188893
              ],
              [
                -99.07679061225257,
                19.42930017568727
              ],
              [
                -99.07682082847231,
                19.42927807232053
              ],
              [
                -99.0768495133766,
                19.4292542233198
              ],
              [
                -99.07687655375923,
                19.42922872280548
              ],
              [
                -99.07690184290418,
                19.429201671415676
              ],
              [
                -99.07692528100672,
                19.429173175909124
              ],
              [
                -99.07694677556741,
                19.429143348743846
              ],
              [
                -99.07696624175698,
                19.429112307633325
              ],
              [
                -99.07698360275131,
                19.429080175081978
              ],
              [
                -99.0769987900345,
                19.429047077901718
              ],
              [
                -99.07701174366925,
                19.429013146711434
              ],
              [
                -99.0770224125335,
                19.428978515421548
              ],
              [
                -99.0770307545221,
                19.42894332070554
              ],
              [
                -99.07703673671305,
                19.42890770146055
              ],
              [
                -99.07704033549739,
                19.42887179825924
              ],
              [
                -99.07704153667233,
                19.428835752795017
              ],
              [
                -99.07704033549739,
                19.428799707322778
              ],
              [
                -99.07703673671305,
                19.4287638040976
              ],
              [
                -99.0770307545221,
                19.42872818481325
              ],
              [
                -99.0770224125335,
                19.428692990043004
              ],
              [
                -99.07701174366925,
                19.428658358684864
              ],
              [
                -99.0769987900345,
                19.428624427413375
              ],
              [
                -99.07698360275131,
                19.428591330140268
              ],
              [
                -99.07696624175698,
                19.428559197485857
              ],
              [
                -99.07694677556741,
                19.428528156263713
              ],
              [
                -99.07692528100672,
                19.428498328979988
              ],
              [
                -99.07690184290418,
                19.42846983335006
              ],
              [
                -99.07687655375923,
                19.428442781833873
              ],
              [
                -99.0768495133766,
                19.42841728119218
              ],
              [
                -99.07682082847231,
                19.428393432065064
              ],
              [
                -99.07679061225257,
                19.428371328574933
              ],
              [
                -99.07675898396703,
                19.428351057954877
              ],
              [
                -99.07672606843802,
                19.428332700204475
              ],
              [
                -99.07669199556815,
                19.428316327774017
              ],
              [
                -99.07665689982746,
                19.428302005278656
              ],
              [
                -99.07662091972277,
                19.428289789243248
              ],
              [
                -99.07658419725115,
                19.428279727879417
              ],
              [
                -99.07654687733944,
                19.428271860895144
              ],
              [
                -99.07650910727222,
                19.428266219338163
              ],
              [
                -99.07647103611072,
                19.42826282547336
              ],
              [
                -99.07643281410444,
                19.428261692694882
              ],
              [
                -99.07639459209815,
                19.42826282547336
              ],
              [
                -99.07635652093666,
                19.428266219338163
              ],
              [
                -99.07631875086943,
                19.428271860895144
              ],
              [
                -99.07628143095772,
                19.428279727879417
              ],
              [
                -99.07624470848609,
                19.428289789243248
              ],
              [
                -99.07620872838143,
                19.428302005278656
              ],
              [
                -99.07617363264073,
                19.428316327774017
              ],
              [
                -99.07613955977085,
                19.428332700204475
              ],
              [
                -99.07610664424185,
                19.428351057954877
              ],
              [
                -99.07607501595629,
                19.428371328574933
              ],
              [
                -99.07604479973656,
                19.428393432065064
              ],
              [
                -99.07601611483227,
                19.42841728119218
              ],
              [
                -99.07598907444965,
                19.428442781833873
              ],
              [
                -99.0759637853047,
                19.42846983335006
              ],
              [
                -99.07594034720216,
                19.428498328979988
              ],
              [
                -99.0759188526415,
                19.428528156263713
              ],
              [
                -99.0758993864519,
                19.428559197485857
              ],
              [
                -99.07588202545757,
                19.428591330140268
              ],
              [
                -99.07586683817438,
                19.428624427413375
              ],
              [
                -99.07585388453964,
                19.428658358684864
              ],
              [
                -99.07584321567539,
                19.428692990043004
              ],
              [
                -99.07583487368677,
                19.42872818481325
              ],
              [
                -99.0758288914958,
                19.4287638040976
              ],
              [
                -99.07582409153656,
                19.428835752795017
              ]
            ]
          ]
        }
      },
      {
        "type": "Feature",
        "properties": {
          "name": "ZPV6",
          "@circle": {
            "type": "Mercator",
            "center": [
              -99.0661289,
              19.4337203
            ]
          }
        },
        "geometry": {
          "type": "Polygon",
          "coordinates": [
            [
              [
                -99.06566546425702,
                19.433720253226657
              ],
              [
                -99.0656663787777,
                19.43374769579997
              ],
              [
                -99.06566911873048,
                19.433775030065366
              ],
              [
                -99.06567367330206,
                19.433802148147077
              ],
              [
                -99.06568002451759,
                19.43382894302255
              ],
              [
                -99.06568814731176,
                19.43385530894486
              ],
              [
                -99.06569800962761,
                19.433881141859967
              ],
              [
                -99.06570957254306,
                19.433906339817458
              ],
              [
                -99.06572279042457,
                19.4339308033728
              ],
              [
                -99.06573761110721,
                19.4339544359799
              ],
              [
                -99.06575397610052,
                19.433977144372005
              ],
              [
                -99.06577182081935,
                19.43399883892989
              ],
              [
                -99.06579107483871,
                19.434019434035477
              ],
              [
                -99.06581166217184,
                19.434038848409692
              ],
              [
                -99.06583350156993,
                19.434057005433353
              ],
              [
                -99.0658565068428,
                19.43407383344938
              ],
              [
                -99.06588058719919,
                19.434089266045714
              ],
              [
                -99.06590564760494,
                19.434103242317367
              ],
              [
                -99.06593158915805,
                19.434115707106756
              ],
              [
                -99.0659583094791,
                19.434126611221394
              ],
              [
                -99.06598570311516,
                19.43413591162805
              ],
              [
                -99.06601366195608,
                19.43414357162254
              ],
              [
                -99.06604207566107,
                19.4341495609746
              ],
              [
                -99.06607083209421,
                19.434153856047207
              ],
              [
                -99.06609981776704,
                19.434156439889755
              ],
              [
                -99.06612891828631,
                19.43415730230512
              ],
              [
                -99.06615801880561,
                19.434156439889755
              ],
              [
                -99.06618700447841,
                19.434153856047207
              ],
              [
                -99.06621576091158,
                19.4341495609746
              ],
              [
                -99.06624417461657,
                19.43414357162254
              ],
              [
                -99.06627213345747,
                19.43413591162805
              ],
              [
                -99.06629952709353,
                19.434126611221394
              ],
              [
                -99.06632624741457,
                19.434115707106756
              ],
              [
                -99.0663521889677,
                19.434103242317367
              ],
              [
                -99.06637724937346,
                19.434089266045714
              ],
              [
                -99.06640132972986,
                19.43407383344938
              ],
              [
                -99.06642433500274,
                19.434057005433353
              ],
              [
                -99.0664461744008,
                19.434038848409692
              ],
              [
                -99.0664667617339,
                19.434019434035477
              ],
              [
                -99.0664860157533,
                19.43399883892989
              ],
              [
                -99.06650386047212,
                19.433977144372005
              ],
              [
                -99.06652022546542,
                19.4339544359799
              ],
              [
                -99.06653504614806,
                19.4339308033728
              ],
              [
                -99.06654826402959,
                19.433906339817458
              ],
              [
                -99.06655982694504,
                19.433881141859967
              ],
              [
                -99.06656968926089,
                19.43385530894486
              ],
              [
                -99.06657781205504,
                19.43382894302255
              ],
              [
                -99.06658416327058,
                19.433802148147077
              ],
              [
                -99.06658871784214,
                19.433775030065366
              ],
              [
                -99.06659145779494,
                19.43374769579997
              ],
              [
                -99.0665923723156,
                19.433720253226657
              ],
              [
                -99.06659145779494,
                19.433692810648715
              ],
              [
                -99.06658871784214,
                19.433665476369487
              ],
              [
                -99.06658416327058,
                19.433638358264954
              ],
              [
                -99.06657781205504,
                19.433611563358017
              ],
              [
                -99.06656968926089,
                19.43358519739614
              ],
              [
                -99.06655982694504,
                19.43355936443395
              ],
              [
                -99.06654826402959,
                19.433534166422618
              ],
              [
                -99.06653504614806,
                19.43350970280753
              ],
              [
                -99.06652022546542,
                19.433486070135714
              ],
              [
                -99.06650386047212,
                19.433463361674935
              ],
              [
                -99.0664860157533,
                19.433441667045514
              ],
              [
                -99.0664667617339,
                19.433421071866672
              ],
              [
                -99.0664461744008,
                19.433401657418578
              ],
              [
                -99.06642433500274,
                19.43338350032165
              ],
              [
                -99.06640132972986,
                19.433366672234087
              ],
              [
                -99.06637724937346,
                19.433351239569078
              ],
              [
                -99.0663521889677,
                19.43333726323271
              ],
              [
                -99.06632624741457,
                19.433324798383577
              ],
              [
                -99.06629952709353,
                19.433313894215107
              ],
              [
                -99.06627213345747,
                19.433304593761367
              ],
              [
                -99.06624417461657,
                19.4332969337273
              ],
              [
                -99.06621576091158,
                19.43329094434379
              ],
              [
                -99.06618700447841,
                19.433286649248373
              ],
              [
                -99.06615801880561,
                19.43328406539197
              ],
              [
                -99.06612891828631,
                19.433283202971975
              ],
              [
                -99.06609981776704,
                19.43328406539197
              ],
              [
                -99.06607083209421,
                19.433286649248373
              ],
              [
                -99.06604207566107,
                19.43329094434379
              ],
              [
                -99.06601366195608,
                19.4332969337273
              ],
              [
                -99.06598570311516,
                19.433304593761367
              ],
              [
                -99.0659583094791,
                19.433313894215107
              ],
              [
                -99.06593158915805,
                19.433324798383577
              ],
              [
                -99.06590564760494,
                19.43333726323271
              ],
              [
                -99.06588058719919,
                19.433351239569078
              ],
              [
                -99.0658565068428,
                19.433366672234087
              ],
              [
                -99.06583350156993,
                19.43338350032165
              ],
              [
                -99.06581166217184,
                19.433401657418578
              ],
              [
                -99.06579107483871,
                19.433421071866672
              ],
              [
                -99.06577182081935,
                19.433441667045514
              ],
              [
                -99.06575397610052,
                19.433463361674935
              ],
              [
                -99.06573761110721,
                19.433486070135714
              ],
              [
                -99.06572279042457,
                19.43350970280753
              ],
              [
                -99.06570957254306,
                19.433534166422618
              ],
              [
                -99.06569800962761,
                19.43355936443395
              ],
              [
                -99.06568814731176,
                19.43358519739614
              ],
              [
                -99.06568002451759,
                19.433611563358017
              ],
              [
                -99.06567367330206,
                19.433638358264954
              ],
              [
                -99.06566911873048,
                19.433665476369487
              ],
              [
                -99.06566546425702,
                19.433720253226657
              ]
            ]
          ]
        }
      }
    ]
  }